lat,lng,detail,Zip
41.92,-87.67,"{'road': 'North Elston Avenue', 'neighbourhood': 'Logan Square', 'city': 'Chicago', 'county': 'Cook County', 'state': 'Illinois', 'postcode': '606476', 'country': 'United States of America', 'country_code': 'us'}",60647
42,-87.71,"{'house_number': '6519-6525', 'road': 'North Kedzie Avenue', 'neighbourhood': 'West Ridge', 'village': 'Lincolnwood', 'municipality': 'Niles Township', 'county': 'Cook County', 'state': 'Illinois', 'postcode': '60712-2716', 'country': 'United States of America', 'country_code': 'us'}",60712
41.89,-87.7,"{'amenity': 'Recycling Drop-Off Center', 'road': 'West Ferdinand Street', 'neighbourhood': 'Humboldt Park', 'city': 'Chicago', 'county': 'Cook County', 'state': 'Illinois', 'postcode': '60622-4580', 'country': 'United States of America', 'country_code': 'us'}",60622
41.7,-87.53,"{'house_number': '10729', 'road': 'South Avenue F', 'neighbourhood': 'East Side', 'city': 'Chicago', 'county': 'Cook County', 'state': 'Illinois', 'postcode': '46394', 'country': 'United States of America', 'country_code': 'us'}",46394
42,-87.94,"{'house_number': '1869', 'road': 'South Elmhurst Road', 'neighbourhood': ""O'Hare"", 'city': 'Chicago', 'municipality': 'Jefferson Township', 'county': 'Cook County', 'state': 'Illinois', 'postcode': '60007', 'country': 'United States of America', 'country_code': 'us'}",60007
42,-87.89,"{'house_number': '10700', 'road': 'West Higgins Road', 'village': 'Rosemont', 'county': 'Cook County', 'state': 'Illinois', 'postcode': '60018', 'country': 'United States of America', 'country_code': 'us'}",60018
42.02,-87.82,"{'house_number': '130', 'road': 'Joyce Place', 'town': 'Park Ridge', 'county': 'Cook County', 'state': 'Illinois', 'postcode': '60068', 'country': 'United States of America', 'country_code': 'us'}",60068
41.99,-87.84,"{'house_number': '1109', 'road': 'Glenlake Avenue', 'town': 'Park Ridge', 'municipality': 'Norwood Park Township', 'county': 'Cook County', 'state': 'Illinois', 'postcode': '60068', 'country': 'United States of America', 'country_code': 'us'}",60068
41.99,-87.85,"{'road': 'Des Plaines River Trail', 'town': 'Park Ridge', 'municipality': 'Leyden Township', 'county': 'Cook County', 'state': 'Illinois', 'postcode': '60068', 'country': 'United States of America', 'country_code': 'us'}",60068
41.99,-87.83,"{'house_number': '473', 'road': 'Glenlake Avenue', 'town': 'Park Ridge', 'municipality': 'Norwood Park Township', 'county': 'Cook County', 'state': 'Illinois', 'postcode': '60068', 'country': 'United States of America', 'country_code': 'us'}",60068
42.01,-87.91,"{'road': 'Jane Addams Memorial Tollway', 'town': 'Des Plaines', 'county': 'Cook County', 'state': 'Illinois', 'postcode': '60124', 'country': 'United States of America', 'country_code': 'us'}",60124
41.95,-87.89,"{'house_number': '10528', 'road': 'Seymour Avenue', 'neighbourhood': ""O'Hare"", 'town': 'Franklin Park', 'municipality': 'Leyden Township', 'county': 'Cook County', 'state': 'Illinois', 'postcode': '60131', 'country': 'United States of America', 'country_code': 'us'}",60131
41.95,-87.91,"{'road': 'Taft Avenue', 'neighbourhood': ""O'Hare"", 'city': 'Chicago', 'municipality': 'Leyden Township', 'county': 'Cook County', 'state': 'Illinois', 'postcode': '60132', 'country': 'United States of America', 'country_code': 'us'}",60132
41.98,-87.85,"{'tourism': 'Catherine Chevalier Woods Picnic Shelter Grove 2', 'road': 'Des Plaines River Trail', 'neighbourhood': ""O'Hare"", 'city': 'Chicago', 'municipality': 'Jefferson Township', 'county': 'Cook County', 'state': 'Illinois', 'postcode': '60176', 'country': 'United States of America', 'country_code': 'us'}",60176
41.97,-87.87,"{'house_number': '5000', 'road': 'Harold Avenue', 'hamlet': 'Riverview', 'town': 'Schiller Park', 'municipality': 'Leyden Township', 'county': 'Cook County', 'state': 'Illinois', 'postcode': '60176', 'country': 'United States of America', 'country_code': 'us'}",60176
41.95,-87.84,"{'aeroway': 'Schiller Model Airplane Flying Field', 'road': 'West Irving Park Road', 'neighbourhood': ""O'Hare"", 'town': 'Schiller Park', 'municipality': 'Leyden Township', 'county': 'Cook County', 'state': 'Illinois', 'postcode': '60176', 'country': 'United States of America', 'country_code': 'us'}",60176
41.97,-87.85,"{'road': 'Des Plaines Blue Unpaved Trail', 'neighbourhood': ""O'Hare"", 'city': 'Chicago', 'municipality': 'Jefferson Township', 'county': 'Cook County', 'state': 'Illinois', 'postcode': '60176', 'country': 'United States of America', 'country_code': 'us'}",60176
42.02,-87.69,"{'amenity': 'CVS Pharmacy', 'house_number': '101', 'road': 'Asbury Avenue', 'city': 'Evanston', 'municipality': 'Evanston Township', 'county': 'Cook County', 'state': 'Illinois', 'postcode': '60202', 'country': 'United States of America', 'country_code': 'us'}",60202
42.02,-87.7,"{'house_number': '120', 'road': 'Dodge Avenue', 'city': 'Evanston', 'municipality': 'Evanston Township', 'county': 'Cook County', 'state': 'Illinois', 'postcode': '60202', 'country': 'United States of America', 'country_code': 'us'}",60202
42.02,-87.68,"{'house_number': '117', 'road': 'Custer Avenue', 'city': 'Evanston', 'municipality': 'Evanston Township', 'county': 'Cook County', 'state': 'Illinois', 'postcode': '60202', 'country': 'United States of America', 'country_code': 'us'}",60202
42.02,-87.71,"{'house_number': '3200', 'road': 'West Howard Street', 'town': 'Skokie', 'municipality': 'Niles Township', 'county': 'Cook County', 'state': 'Illinois', 'postcode': '60202', 'country': 'United States of America', 'country_code': 'us'}",60202
41.91,-87.71,"{'house_number': '3301-3329', 'road': 'West North Avenue', 'neighbourhood': 'Humboldt Park', 'city': 'Chicago', 'municipality': 'Jefferson Township', 'county': 'Cook County', 'state': 'Illinois', 'postcode': '60302', 'country': 'United States of America', 'country_code': 'us'}",60302
41.91,-87.69,"{'house_number': '2507', 'road': 'West North Avenue', 'neighbourhood': 'West Town', 'city': 'Chicago', 'county': 'Cook County', 'state': 'Illinois', 'postcode': '60302', 'country': 'United States of America', 'country_code': 'us'}",60302
41.91,-87.76,"{'house_number': '5346', 'road': 'West North Avenue', 'police_beat': 'Beat 2532', 'city': 'Chicago', 'municipality': 'Jefferson Township', 'county': 'Cook County', 'state': 'Illinois', 'postcode': '60302', 'country': 'United States of America', 'country_code': 'us'}",60302
41.91,-87.75,"{'house_number': '4918-4926', 'road': 'West North Avenue', 'police_beat': 'Beat 2523', 'city': 'Chicago', 'municipality': 'Jefferson Township', 'county': 'Cook County', 'state': 'Illinois', 'postcode': '60302', 'country': 'United States of America', 'country_code': 'us'}",60302
41.91,-87.7,"{'amenity': 'Saint Lukes United Church of Christ', 'road': 'West North Avenue', 'neighbourhood': 'West Town', 'city': 'Chicago', 'county': 'Cook County', 'state': 'Illinois', 'postcode': '60302', 'country': 'United States of America', 'country_code': 'us'}",60302
41.91,-87.74,"{'house_number': '4534-4540', 'road': 'West North Avenue', 'police_beat': 'Beat 2523', 'city': 'Chicago', 'municipality': 'Jefferson Township', 'county': 'Cook County', 'state': 'Illinois', 'postcode': '60302', 'country': 'United States of America', 'country_code': 'us'}",60302
41.9,-87.78,"{'house_number': '199', 'road': 'Thomas Street', 'town': 'Oak Park', 'county': 'Cook County', 'state': 'Illinois', 'postcode': '60302', 'country': 'United States of America', 'country_code': 'us'}",60302
41.8,-87.79,"{'road': 'West 51st Street', 'neighbourhood': 'Garfield Ridge', 'city': 'Chicago', 'municipality': 'Stickney Township', 'county': 'Cook County', 'state': 'Illinois', 'postcode': '60402', 'country': 'United States of America', 'country_code': 'us'}",60402
41.68,-87.69,"{'road': 'West 119th Street', 'neighbourhood': 'Morgan Park', 'village': 'Merrionette Park', 'municipality': 'Worth Township', 'county': 'Cook County', 'state': 'Illinois', 'postcode': '60406', 'country': 'United States of America', 'country_code': 'us'}",60406
41.7,-87.56,"{'house_number': '10732', 'road': 'South Torrence Avenue', 'neighbourhood': 'South Deering', 'city': 'Chicago', 'county': 'Cook County', 'state': 'Illinois', 'postcode': '60409', 'country': 'United States of America', 'country_code': 'us'}",60409
41.67,-87.56,"{'man_made': 'Sidestream Elevated Pool Aeration (SEPA) Station 1', 'road': 'South Torrence Avenue', 'neighbourhood': 'Hegewisch', 'city': 'Chicago', 'county': 'Cook County', 'state': 'Illinois', 'postcode': '60409', 'country': 'United States of America', 'country_code': 'us'}",60409
41.64,-87.57,"{'road': 'East 142nd Street', 'town': 'Calumet City', 'municipality': 'Thornton Township', 'county': 'Cook County', 'state': 'Illinois', 'postcode': '60409', 'country': 'United States of America', 'country_code': 'us'}",60409
41.66,-87.56,"{'house_number': '12600-12644', 'road': 'South Torrence Avenue', 'neighbourhood': 'Hegewisch', 'city': 'Chicago', 'county': 'Cook County', 'state': 'Illinois', 'postcode': '60409', 'country': 'United States of America', 'country_code': 'us'}",60409
41.73,-87.74,"{'house_number': '4730', 'road': 'West 89th Place', 'village': 'Hometown', 'municipality': 'Worth Township', 'county': 'Cook County', 'state': 'Illinois', 'postcode': '60456', 'country': 'United States of America', 'country_code': 'us'}",60456
41.79,-87.76,"{'aeroway': 'West ramp', 'road': 'South Central Avenue', 'neighbourhood': 'Clearing', 'city': 'Chicago', 'county': 'Cook County', 'state': 'Illinois', 'postcode': '60459', 'country': 'United States of America', 'country_code': 'us'}",60459
41.78,-87.76,"{'road': 'South Central Avenue', 'neighbourhood': 'Clearing', 'city': 'Chicago', 'county': 'Cook County', 'state': 'Illinois', 'postcode': '60459', 'country': 'United States of America', 'country_code': 'us'}",60459
41.8,-87.8,"{'road': 'Adlai Stevenson Expressway', 'town': 'Summit', 'municipality': 'Stickney Township', 'county': 'Cook County', 'state': 'Illinois', 'postcode': '60501', 'country': 'United States of America', 'country_code': 'us'}",60501
41.88,-87.63,"{'building': 'Marquette Building', 'house_number': '132-146', 'road': 'South Dearborn Street', 'neighbourhood': 'Loop', 'suburb': 'South Loop', 'city': 'Chicago', 'county': 'Cook County', 'state': 'Illinois', 'postcode': '60602', 'country': 'United States of America', 'country_code': 'us'}",60602
41.86,-87.62,"{'building': '1600 Museum Park', 'house_number': '1621-1629', 'road': 'South Prairie Avenue', 'neighbourhood': 'Near South Side', 'suburb': 'South Loop', 'city': 'Chicago', 'county': 'Cook County', 'state': 'Illinois', 'postcode': '60605', 'country': 'United States of America', 'country_code': 'us'}",60605
41.87,-87.63,"{'house_number': '960-996', 'road': 'South Park Terrace', 'residential': 'Dearborn Park', 'suburb': 'South Loop', 'city': 'Chicago', 'county': 'Cook County', 'state': 'Illinois', 'postcode': '60605', 'country': 'United States of America', 'country_code': 'us'}",60605
41.87,-87.61,"{'man_made': 'Southerly Breakwater', 'road': 'Lakefront Trail', 'neighbourhood': 'Near South Side', 'suburb': 'South Loop', 'city': 'Chicago', 'county': 'Cook County', 'state': 'Illinois', 'postcode': '60605', 'country': 'United States of America', 'country_code': 'us'}",60605
41.85,-87.61,"{'amenity': 'McCormick Place Parking Lot C', 'road': 'Lakefront Trail', 'neighbourhood': 'Near South Side', 'suburb': 'South Loop', 'city': 'Chicago', 'county': 'Cook County', 'state': 'Illinois', 'postcode': '60605', 'country': 'United States of America', 'country_code': 'us'}",60605
41.88,-87.66,"{'house_number': '1312', 'road': 'West Monroe Street', 'neighbourhood': 'Near West Side', 'suburb': 'Illinois Medical District', 'city': 'Chicago', 'county': 'Cook County', 'state': 'Illinois', 'postcode': '60607', 'country': 'United States of America', 'country_code': 'us'}",60607
41.88,-87.65,"{'leisure': 'Mary Bartelme Park Playground', 'road': 'South Peoria Street', 'neighbourhood': 'Near West Side', 'suburb': 'University Village/Little Italy', 'city': 'Chicago', 'county': 'Cook County', 'state': 'Illinois', 'postcode': '60607', 'country': 'United States of America', 'country_code': 'us'}",60607
41.87,-87.65,"{'amenity': 'University of Illinois at Chicago', 'road': 'Eisenhower Expressway', 'neighbourhood': 'Near West Side', 'suburb': 'Illinois Medical District', 'city': 'Chicago', 'county': 'Cook County', 'state': 'Illinois', 'postcode': '60607', 'country': 'United States of America', 'country_code': 'us'}",60607
41.87,-87.66,"{'house_number': '927', 'road': 'South Ada Street', 'neighbourhood': 'Near West Side', 'suburb': 'University Village/Little Italy', 'city': 'Chicago', 'county': 'Cook County', 'state': 'Illinois', 'postcode': '60607', 'country': 'United States of America', 'country_code': 'us'}",60607
41.87,-87.64,"{'amenity': ""Portillo's"", 'house_number': '520', 'road': 'West Taylor Street', 'neighbourhood': 'Near West Side', 'suburb': 'South Loop', 'city': 'Chicago', 'county': 'Cook County', 'state': 'Illinois', 'postcode': '60607', 'country': 'United States of America', 'country_code': 'us'}",60607
41.86,-87.68,"{'railway': 'BNSF Western Avenue Intermodal Facility', 'road': 'South Wolcott Avenue', 'neighbourhood': 'Near West Side', 'suburb': 'Illinois Medical District', 'city': 'Chicago', 'county': 'Cook County', 'state': 'Illinois', 'postcode': '60608', 'country': 'United States of America', 'country_code': 'us'}",60608
41.86,-87.67,"{'house_number': '1537', 'road': 'South Wood Street', 'neighbourhood': 'Near West Side', 'suburb': 'Illinois Medical District', 'city': 'Chicago', 'county': 'Cook County', 'state': 'Illinois', 'postcode': '60608', 'country': 'United States of America', 'country_code': 'us'}",60608
41.86,-87.66,"{'house_number': '1343', 'road': 'West 16th Street', 'neighbourhood': 'Lower West Side', 'suburb': 'Pilsen', 'city': 'Chicago', 'county': 'Cook County', 'state': 'Illinois', 'postcode': '60608', 'country': 'United States of America', 'country_code': 'us'}",60608
41.85,-87.69,"{'house_number': '2323', 'road': 'South Rockwell Street', 'neighbourhood': 'South Lawndale', 'city': 'Chicago', 'county': 'Cook County', 'state': 'Illinois', 'postcode': '60608', 'country': 'United States of America', 'country_code': 'us'}",60608
41.84,-87.7,"{'building': 'Department Of Corrections Division VI', 'house_number': '2801', 'road': 'South Sacramento Avenue', 'neighbourhood': 'South Lawndale', 'city': 'Chicago', 'county': 'Cook County', 'state': 'Illinois', 'postcode': '60608', 'country': 'United States of America', 'country_code': 'us'}",60608
41.86,-87.65,"{'house_number': '949-951', 'road': 'West 16th Street', 'neighbourhood': 'Lower West Side', 'suburb': 'Pilsen', 'city': 'Chicago', 'county': 'Cook County', 'state': 'Illinois', 'postcode': '60608', 'country': 'United States of America', 'country_code': 'us'}",60608
41.84,-87.65,"{'house_number': '2930', 'road': 'South Quinn Street', 'neighbourhood': 'Bridgeport', 'city': 'Chicago', 'county': 'Cook County', 'state': 'Illinois', 'postcode': '60608', 'country': 'United States of America', 'country_code': 'us'}",60608
41.86,-87.69,"{'amenity': 'Stage 12', 'road': 'West 15th Street', 'commercial': 'Cinespace Chicago Film Studios', 'suburb': 'Illinois Medical District', 'city': 'Chicago', 'county': 'Cook County', 'state': 'Illinois', 'postcode': '60608', 'country': 'United States of America', 'country_code': 'us'}",60608
41.85,-87.67,"{'building': 'Preferred Freezer Services', 'road': 'Paseo', 'neighbourhood': 'Lower West Side', 'suburb': 'Pilsen', 'city': 'Chicago', 'county': 'Cook County', 'state': 'Illinois', 'postcode': '60608', 'country': 'United States of America', 'country_code': 'us'}",60608
41.84,-87.66,"{'house_number': '2976', 'road': 'South Bonaparte Street', 'neighbourhood': 'Bridgeport', 'city': 'Chicago', 'county': 'Cook County', 'state': 'Illinois', 'postcode': '60608', 'country': 'United States of America', 'country_code': 'us'}",60608
41.87,-87.67,"{'amenity': 'University of Illinois at Chicago West Campus', 'road': 'West Washburne Avenue', 'neighbourhood': 'Near West Side', 'suburb': 'Illinois Medical District', 'district': 'Illinois Medical District', 'county': 'Cook County', 'state': 'Illinois', 'postcode': '60608', 'country': 'United States of America', 'country_code': 'us'}",60608
41.85,-87.65,"{'building': 'Chicago Scenic Studios', 'road': 'West Lumber Street', 'neighbourhood': 'Lower West Side', 'suburb': 'Pilsen', 'city': 'Chicago', 'county': 'Cook County', 'state': 'Illinois', 'postcode': '60608', 'country': 'United States of America', 'country_code': 'us'}",60608
41.85,-87.66,"{'building': 'Illinois Brick Company', 'house_number': '2201', 'road': 'South Loomis Street', 'neighbourhood': 'Lower West Side', 'suburb': 'Pilsen', 'city': 'Chicago', 'county': 'Cook County', 'state': 'Illinois', 'postcode': '60608', 'country': 'United States of America', 'country_code': 'us'}",60608
41.84,-87.69,"{'amenity': 'Cook County Boot Camp', 'road': 'South Rockwell Street', 'neighbourhood': 'South Lawndale', 'city': 'Chicago', 'county': 'Cook County', 'state': 'Illinois', 'postcode': '60608', 'country': 'United States of America', 'country_code': 'us'}",60608
41.84,-87.68,"{'building': 'Swift Intermodal', 'house_number': '2915', 'road': 'South Leavitt Street', 'neighbourhood': 'Lower West Side', 'city': 'Chicago', 'county': 'Cook County', 'state': 'Illinois', 'postcode': '60608', 'country': 'United States of America', 'country_code': 'us'}",60608
41.8,-87.65,"{'house_number': '952', 'road': 'West 52nd Street', 'neighbourhood': 'New City', 'city': 'Chicago', 'county': 'Cook County', 'state': 'Illinois', 'postcode': '60609', 'country': 'United States of America', 'country_code': 'us'}",60609
41.83,-87.64,"{'house_number': '3526', 'road': 'South Parnell Avenue', 'neighbourhood': 'Bridgeport', 'city': 'Chicago', 'county': 'Cook County', 'state': 'Illinois', 'postcode': '60609', 'country': 'United States of America', 'country_code': 'us'}",60609
41.84,-87.64,"{'house_number': '2959', 'road': 'South Parnell Avenue', 'neighbourhood': 'Bridgeport', 'city': 'Chicago', 'county': 'Cook County', 'state': 'Illinois', 'postcode': '60609', 'country': 'United States of America', 'country_code': 'us'}",60609
41.82,-87.67,"{'house_number': '4200', 'road': 'South Hermitage Avenue', 'neighbourhood': 'New City', 'city': 'Chicago', 'county': 'Cook County', 'state': 'Illinois', 'postcode': '60609', 'country': 'United States of America', 'country_code': 'us'}",60609
41.83,-87.68,"{'house_number': '3513', 'road': 'South Leavitt Street', 'neighbourhood': 'McKinley Park', 'city': 'Chicago', 'county': 'Cook County', 'state': 'Illinois', 'postcode': '60609', 'country': 'United States of America', 'country_code': 'us'}",60609
41.82,-87.64,"{'house_number': '534', 'road': 'West 41st Street', 'industrial': 'Stockyards Industrial Corridor', 'city': 'Chicago', 'county': 'Cook County', 'state': 'Illinois', 'postcode': '60609', 'country': 'United States of America', 'country_code': 'us'}",60609
41.81,-87.64,"{'house_number': '538', 'road': 'West 46th Place', 'neighbourhood': 'New City', 'city': 'Chicago', 'county': 'Cook County', 'state': 'Illinois', 'postcode': '60609', 'country': 'United States of America', 'country_code': 'us'}",60609
41.83,-87.65,"{'house_number': '950-952', 'road': 'West 35th Place', 'neighbourhood': 'Bridgeport', 'city': 'Chicago', 'county': 'Cook County', 'state': 'Illinois', 'postcode': '60609', 'country': 'United States of America', 'country_code': 'us'}",60609
41.82,-87.65,"{'house_number': '4045', 'road': 'South Morgan Street', 'industrial': 'Stockyards Industrial Corridor', 'city': 'Chicago', 'county': 'Cook County', 'state': 'Illinois', 'postcode': '60609', 'country': 'United States of America', 'country_code': 'us'}",60609
41.83,-87.63,"{'house_number': '3533', 'road': 'South La Salle Street', 'neighbourhood': 'Armour Square', 'city': 'Chicago', 'county': 'Cook County', 'state': 'Illinois', 'postcode': '60609', 'country': 'United States of America', 'country_code': 'us'}",60609
41.81,-87.63,"{'house_number': '142', 'road': 'West Swann Street', 'neighbourhood': 'Fuller Park', 'city': 'Chicago', 'county': 'Cook County', 'state': 'Illinois', 'postcode': '60609', 'country': 'United States of America', 'country_code': 'us'}",60609
41.8,-87.64,"{'house_number': '600', 'road': 'West 52nd Street', 'neighbourhood': 'New City', 'city': 'Chicago', 'county': 'Cook County', 'state': 'Illinois', 'postcode': '60609', 'country': 'United States of America', 'country_code': 'us'}",60609
41.82,-87.66,"{'house_number': '1318', 'road': 'West 41st Street', 'industrial': 'Stockyards Industrial Corridor', 'city': 'Chicago', 'county': 'Cook County', 'state': 'Illinois', 'postcode': '60609', 'country': 'United States of America', 'country_code': 'us'}",60609
41.83,-87.66,"{'house_number': '1401', 'road': 'West 35th Street', 'neighbourhood': 'McKinley Park', 'city': 'Chicago', 'county': 'Cook County', 'state': 'Illinois', 'postcode': '60609', 'country': 'United States of America', 'country_code': 'us'}",60609
41.89,-87.63,"{'building': '407 N Clark St', 'road': 'West Hubbard Street', 'neighbourhood': 'Near North Side', 'city': 'Chicago', 'county': 'Cook County', 'state': 'Illinois', 'postcode': '60610', 'country': 'United States of America', 'country_code': 'us'}",60610
41.9,-87.63,"{'amenity': 'The Newberry Library', 'house_number': '60', 'road': 'West Walton Street', 'neighbourhood': 'Near North Side', 'city': 'Chicago', 'county': 'Cook County', 'state': 'Illinois', 'postcode': '60610', 'country': 'United States of America', 'country_code': 'us'}",60610
41.91,-87.63,"{'house_number': '1517', 'road': 'North Dearborn Parkway', 'neighbourhood': 'Near North Side', 'city': 'Chicago', 'county': 'Cook County', 'state': 'Illinois', 'postcode': '60610', 'country': 'United States of America', 'country_code': 'us'}",60610
41.9,-87.64,"{'house_number': '954-984', 'road': 'North Hudson Avenue', 'neighbourhood': 'Chicago River North', 'city': 'Chicago', 'county': 'Cook County', 'state': 'Illinois', 'postcode': '60610', 'country': 'United States of America', 'country_code': 'us'}",60610
41.93,-87.63,"{'road': 'Lakefront Trail (foot)', 'neighbourhood': 'Near North Side', 'suburb': 'Lincoln Park', 'city': 'Chicago', 'county': 'Cook County', 'state': 'Illinois', 'postcode': '60610', 'country': 'United States of America', 'country_code': 'us'}",60610
41.9,-87.62,"{'building': 'Esplanade Apartments Ii', 'house_number': '910', 'road': 'North Lake Shore Drive', 'neighbourhood': 'Near North Side', 'city': 'Chicago', 'county': 'Cook County', 'state': 'Illinois', 'postcode': '60611', 'country': 'United States of America', 'country_code': 'us'}",60611
41.89,-87.61,"{'amenity': 'Polk Bros Park City Stage', 'road': 'Lakefront Trail Connector', 'neighbourhood': 'Near North Side', 'city': 'Chicago', 'county': 'Cook County', 'state': 'Illinois', 'postcode': '60611', 'country': 'United States of America', 'country_code': 'us'}",60611
41.89,-87.6,"{'man_made': 'Dime Pier', 'road': 'Dock Street', 'neighbourhood': 'Near North Side', 'city': 'Chicago', 'county': 'Cook County', 'state': 'Illinois', 'postcode': '60611', 'country': 'United States of America', 'country_code': 'us'}",60611
41.87,-87.68,"{'building': 'West Side Center for Disease Control', 'house_number': '2160-2170', 'road': 'West Ogden Avenue', 'neighbourhood': 'Near West Side', 'suburb': 'Illinois Medical District', 'district': 'Illinois Medical District', 'county': 'Cook County', 'state': 'Illinois', 'postcode': '60612', 'country': 'United States of America', 'country_code': 'us'}",60612
41.88,-87.67,"{'amenity': 'D', 'road': 'West Arcade Place', 'neighbourhood': 'Near West Side', 'suburb': 'Illinois Medical District', 'city': 'Chicago', 'county': 'Cook County', 'state': 'Illinois', 'postcode': '60612', 'country': 'United States of America', 'country_code': 'us'}",60612
41.89,-87.68,"{'house_number': '2100', 'road': 'West Hubbard Street', 'industrial': 'Kinzie Industrial Corridor', 'city': 'Chicago', 'county': 'Cook County', 'state': 'Illinois', 'postcode': '60612', 'country': 'United States of America', 'country_code': 'us'}",60612
41.88,-87.68,"{'house_number': '2102', 'road': 'West Monroe Street', 'neighbourhood': 'Near West Side', 'suburb': 'Illinois Medical District', 'city': 'Chicago', 'county': 'Cook County', 'state': 'Illinois', 'postcode': '60612', 'country': 'United States of America', 'country_code': 'us'}",60612
41.88,-87.7,"{'house_number': '2945', 'road': 'West 5th Avenue', 'neighbourhood': 'East Garfield Park', 'city': 'Chicago', 'county': 'Cook County', 'state': 'Illinois', 'postcode': '60612', 'country': 'United States of America', 'country_code': 'us'}",60612
41.88,-87.69,"{'house_number': '2533', 'road': 'West Monroe Street', 'neighbourhood': 'Near West Side', 'suburb': 'Illinois Medical District', 'city': 'Chicago', 'county': 'Cook County', 'state': 'Illinois', 'postcode': '60612', 'country': 'United States of America', 'country_code': 'us'}",60612
41.89,-87.67,"{'house_number': '1700', 'road': 'West Hubbard Street', 'industrial': 'Kinzie Industrial Corridor', 'city': 'Chicago', 'county': 'Cook County', 'state': 'Illinois', 'postcode': '60612', 'country': 'United States of America', 'country_code': 'us'}",60612
41.95,-87.67,"{'house_number': '3739', 'road': 'North Marshfield Avenue', 'neighbourhood': 'Lake View', 'suburb': 'Roscoe Village', 'city': 'Chicago', 'county': 'Cook County', 'state': 'Illinois', 'postcode': '60613', 'country': 'United States of America', 'country_code': 'us'}",60613
41.96,-87.67,"{'house_number': '4301-4303', 'road': 'North Paulina Street', 'neighbourhood': 'Lake View', 'suburb': 'Uptown', 'city': 'Chicago', 'county': 'Cook County', 'state': 'Illinois', 'postcode': '60613', 'country': 'United States of America', 'country_code': 'us'}",60613
41.95,-87.65,"{'house_number': '801-811', 'road': 'West Bradley Place', 'neighbourhood': 'Lake View', 'suburb': 'Lakeview', 'city': 'Chicago', 'county': 'Cook County', 'state': 'Illinois', 'postcode': '60613', 'country': 'United States of America', 'country_code': 'us'}",60613
41.95,-87.66,"{'house_number': '3731', 'road': 'North Magnolia Avenue', 'neighbourhood': 'Lake View', 'suburb': 'Lakeview', 'city': 'Chicago', 'county': 'Cook County', 'state': 'Illinois', 'postcode': '60613', 'country': 'United States of America', 'country_code': 'us'}",60613
41.96,-87.66,"{'historic': 'Ernie Banks', 'road': 'West Montrose Avenue', 'neighbourhood': 'Sunnyside', 'suburb': 'Uptown', 'city': 'Chicago', 'county': 'Cook County', 'state': 'Illinois', 'postcode': '60613', 'country': 'United States of America', 'country_code': 'us'}",60613
41.96,-87.65,"{'house_number': '4242', 'road': 'North Clarendon Avenue', 'neighbourhood': 'Buena Park', 'suburb': 'Uptown', 'city': 'Chicago', 'county': 'Cook County', 'state': 'Illinois', 'postcode': '60613', 'country': 'United States of America', 'country_code': 'us'}",60613
41.96,-87.64,"{'man_made': 'Harbor Light', 'road': 'West Montrose Harbor Drive', 'suburb': 'Uptown', 'city': 'Chicago', 'county': 'Cook County', 'state': 'Illinois', 'postcode': '60613', 'country': 'United States of America', 'country_code': 'us'}",60613
41.93,-87.64,"{'building': '2626 North Lakeview', 'house_number': '2626', 'road': 'North Lakeview Avenue', 'neighbourhood': 'Lincoln Park', 'suburb': 'Lincoln Park', 'city': 'Chicago', 'county': 'Cook County', 'state': 'Illinois', 'postcode': '60614', 'country': 'United States of America', 'country_code': 'us'}",60614
41.92,-87.64,"{'house_number': '425-427', 'road': 'West Dickens Avenue', 'neighbourhood': 'Lincoln Park', 'suburb': 'Lincoln Park', 'city': 'Chicago', 'county': 'Cook County', 'state': 'Illinois', 'postcode': '60614', 'country': 'United States of America', 'country_code': 'us'}",60614
41.93,-87.66,"{'house_number': '2634', 'road': 'North Magnolia Avenue', 'neighbourhood': 'Lincoln Park', 'suburb': 'Lakeview', 'city': 'Chicago', 'county': 'Cook County', 'state': 'Illinois', 'postcode': '60614', 'country': 'United States of America', 'country_code': 'us'}",60614
41.92,-87.65,"{'house_number': '843', 'road': 'West Dickens Avenue', 'neighbourhood': 'Lincoln Park', 'suburb': 'Lincoln Park', 'city': 'Chicago', 'county': 'Cook County', 'state': 'Illinois', 'postcode': '60614', 'country': 'United States of America', 'country_code': 'us'}",60614
41.91,-87.64,"{'house_number': '1522', 'road': 'North Hudson Avenue', 'neighbourhood': 'Near North Side', 'suburb': 'Lincoln Park', 'city': 'Chicago', 'county': 'Cook County', 'state': 'Illinois', 'postcode': '60614', 'country': 'United States of America', 'country_code': 'us'}",60614
41.93,-87.65,"{'house_number': '2629-2631', 'road': 'North Dayton Street', 'neighbourhood': 'Lincoln Park', 'suburb': 'Lincoln Park', 'city': 'Chicago', 'county': 'Cook County', 'state': 'Illinois', 'postcode': '60614', 'country': 'United States of America', 'country_code': 'us'}",60614
41.93,-87.67,"{'house_number': '2642', 'road': 'North Marshfield Avenue', 'neighbourhood': 'Lincoln Park', 'suburb': 'Roscoe Village', 'city': 'Chicago', 'county': 'Cook County', 'state': 'Illinois', 'postcode': '60614', 'country': 'United States of America', 'country_code': 'us'}",60614
41.92,-87.66,"{'house_number': '1242', 'road': 'West Dickens Avenue', 'neighbourhood': 'Lincoln Park', 'suburb': 'Lincoln Park', 'city': 'Chicago', 'county': 'Cook County', 'state': 'Illinois', 'postcode': '60614', 'country': 'United States of America', 'country_code': 'us'}",60614
41.92,-87.63,"{'leisure': 'Diversey Harbor', 'house_number': '2601', 'road': 'North Cannon Drive', 'neighbourhood': 'Lincoln Park', 'suburb': 'Lincoln Park', 'city': 'Chicago', 'county': 'Cook County', 'state': 'Illinois', 'postcode': '60614', 'country': 'United States of America', 'country_code': 'us'}",60614
41.8,-87.6,"{'house_number': '5228', 'road': 'South Greenwood Avenue', 'neighbourhood': 'Hyde Park', 'city': 'Chicago', 'county': 'Cook County', 'state': 'Illinois', 'postcode': '60615', 'country': 'United States of America', 'country_code': 'us'}",60615
41.8,-87.59,"{'amenity': 'United Church of Hyde Park', 'house_number': '1440', 'road': 'East 53rd Street', 'neighbourhood': 'Hyde Park', 'city': 'Chicago', 'county': 'Cook County', 'state': 'Illinois', 'postcode': '60615', 'country': 'United States of America', 'country_code': 'us'}",60615
41.81,-87.59,"{'house_number': '4711', 'road': 'South Cornell Drive', 'neighbourhood': 'Kenwood', 'city': 'Chicago', 'county': 'Cook County', 'state': 'Illinois', 'postcode': '60615', 'country': 'United States of America', 'country_code': 'us'}",60615
41.85,-87.63,"{'house_number': '2356', 'road': 'South Federal Street', 'neighbourhood': 'Chinatown', 'suburb': 'South Loop', 'city': 'Chicago', 'county': 'Cook County', 'state': 'Illinois', 'postcode': '60616', 'country': 'United States of America', 'country_code': 'us'}",60616
41.85,-87.62,"{'amenity': 'McCormick Place Convention Center', 'road': 'South Fort Dearborn Drive', 'neighbourhood': 'Near South Side', 'suburb': 'South Loop', 'city': 'Chicago', 'county': 'Cook County', 'state': 'Illinois', 'postcode': '60616', 'country': 'United States of America', 'country_code': 'us'}",60616
41.84,-87.63,"{'house_number': '3037', 'road': 'South La Salle Street', 'neighbourhood': 'Armour Square', 'city': 'Chicago', 'county': 'Cook County', 'state': 'Illinois', 'postcode': '60616', 'country': 'United States of America', 'country_code': 'us'}",60616
41.86,-87.63,"{'house_number': '89', 'road': 'West 16th Street', 'neighbourhood': 'Near South Side', 'suburb': 'South Loop', 'city': 'Chicago', 'county': 'Cook County', 'state': 'Illinois', 'postcode': '60616', 'country': 'United States of America', 'country_code': 'us'}",60616
41.82,-87.63,"{'road': 'Dan Ryan Expressway', 'neighbourhood': 'Fuller Park', 'city': 'Chicago', 'county': 'Cook County', 'state': 'Illinois', 'postcode': '60616', 'country': 'United States of America', 'country_code': 'us'}",60616
41.84,-87.61,"{'road': 'South Moe Drive', 'neighbourhood': 'Douglas', 'suburb': 'South Loop', 'city': 'Chicago', 'county': 'Cook County', 'state': 'Illinois', 'postcode': '60616', 'country': 'United States of America', 'country_code': 'us'}",60616
41.86,-87.64,"{'road': 'West 16th Street', 'neighbourhood': 'Near West Side', 'suburb': 'South Loop', 'city': 'Chicago', 'county': 'Cook County', 'state': 'Illinois', 'postcode': '60616', 'country': 'United States of America', 'country_code': 'us'}",60616
41.84,-87.62,"{'building': 'Dunbar School (Blr. Ho.)', 'house_number': '3000', 'road': 'South Doctor Martin Luther King Junior Drive', 'neighbourhood': 'Douglas', 'city': 'Chicago', 'county': 'Cook County', 'state': 'Illinois', 'postcode': '60616', 'country': 'United States of America', 'country_code': 'us'}",60616
41.85,-87.64,"{'house_number': '485', 'road': 'West 23rd Place', 'neighbourhood': 'Chinatown', 'suburb': 'Pilsen', 'city': 'Chicago', 'county': 'Cook County', 'state': 'Illinois', 'postcode': '60616', 'country': 'United States of America', 'country_code': 'us'}",60616
41.75,-87.55,"{'house_number': '8003', 'road': 'South Houston Avenue', 'neighbourhood': 'South Chicago', 'city': 'Chicago', 'county': 'Cook County', 'state': 'Illinois', 'postcode': '60617', 'country': 'United States of America', 'country_code': 'us'}",60617
41.74,-87.56,"{'house_number': '8526', 'road': 'South Saginaw Avenue', 'neighbourhood': 'South Chicago', 'city': 'Chicago', 'county': 'Cook County', 'state': 'Illinois', 'postcode': '60617', 'country': 'United States of America', 'country_code': 'us'}",60617
41.73,-87.59,"{'house_number': '1408', 'road': 'East 91st Street', 'neighbourhood': 'Calumet Heights', 'city': 'Chicago', 'county': 'Cook County', 'state': 'Illinois', 'postcode': '60617', 'country': 'United States of America', 'country_code': 'us'}",60617
41.76,-87.57,"{'house_number': '7427', 'road': 'South Luella Avenue', 'neighbourhood': 'Bryn Mawr East', 'city': 'Chicago', 'county': 'Cook County', 'state': 'Illinois', 'postcode': '60617', 'country': 'United States of America', 'country_code': 'us'}",60617
41.73,-87.58,"{'house_number': '9051', 'road': 'South Cregier Avenue', 'neighbourhood': 'Calumet Heights', 'city': 'Chicago', 'county': 'Cook County', 'state': 'Illinois', 'postcode': '60617', 'country': 'United States of America', 'country_code': 'us'}",60617
41.75,-87.58,"{'house_number': '7955', 'road': 'South Constance Avenue', 'neighbourhood': 'South Chicago', 'city': 'Chicago', 'county': 'Cook County', 'state': 'Illinois', 'postcode': '60617', 'country': 'United States of America', 'country_code': 'us'}",60617
41.73,-87.55,"{'house_number': '3029', 'road': 'East 91st Street', 'neighbourhood': 'South Chicago', 'city': 'Chicago', 'county': 'Cook County', 'state': 'Illinois', 'postcode': '60617', 'country': 'United States of America', 'country_code': 'us'}",60617
41.75,-87.56,"{'house_number': '2605', 'road': 'East 80th Street', 'neighbourhood': 'South Chicago', 'city': 'Chicago', 'county': 'Cook County', 'state': 'Illinois', 'postcode': '60617', 'country': 'United States of America', 'country_code': 'us'}",60617
41.72,-87.59,"{'house_number': '9631', 'road': 'South Dorchester Avenue', 'neighbourhood': 'Pullman', 'city': 'Chicago', 'county': 'Cook County', 'state': 'Illinois', 'postcode': '60617', 'country': 'United States of America', 'country_code': 'us'}",60617
41.71,-87.55,"{'road': 'Calumet Access Road', 'neighbourhood': 'South Deering', 'city': 'Chicago', 'county': 'Cook County', 'state': 'Illinois', 'postcode': '60617', 'country': 'United States of America', 'country_code': 'us'}",60617
41.74,-87.57,"{'house_number': '8542', 'road': 'South South Chicago Avenue', 'neighbourhood': 'Calumet Heights', 'city': 'Chicago', 'county': 'Cook County', 'state': 'Illinois', 'postcode': '60617', 'country': 'United States of America', 'country_code': 'us'}",60617
41.69,-87.54,"{'house_number': '3431', 'road': 'East 113th Street', 'neighbourhood': 'East Side', 'city': 'Chicago', 'county': 'Cook County', 'state': 'Illinois', 'postcode': '60617', 'country': 'United States of America', 'country_code': 'us'}",60617
41.75,-87.57,"{'house_number': '7958', 'road': 'South Luella Avenue', 'residential': 'South Shore HIstorical Bungalow District', 'city': 'Chicago', 'county': 'Cook County', 'state': 'Illinois', 'postcode': '60617', 'country': 'United States of America', 'country_code': 'us'}",60617
41.72,-87.53,"{'road': 'South Crilly Drive', 'neighbourhood': 'East Side', 'city': 'Chicago', 'county': 'Cook County', 'state': 'Illinois', 'postcode': '60617', 'country': 'United States of America', 'country_code': 'us'}",60617
41.74,-87.58,"{'house_number': '8518', 'road': 'South Constance Avenue', 'neighbourhood': 'Avalon Park', 'city': 'Chicago', 'county': 'Cook County', 'state': 'Illinois', 'postcode': '60617', 'country': 'United States of America', 'country_code': 'us'}",60617
41.69,-87.56,"{'house_number': '11273', 'road': 'South Torrence Avenue', 'neighbourhood': 'South Deering', 'city': 'Chicago', 'county': 'Cook County', 'state': 'Illinois', 'postcode': '60617', 'country': 'United States of America', 'country_code': 'us'}",60617
41.72,-87.6,"{'house_number': '939', 'road': 'East 95th Street', 'neighbourhood': 'Burnside', 'city': 'Chicago', 'county': 'Cook County', 'state': 'Illinois', 'postcode': '60617', 'country': 'United States of America', 'country_code': 'us'}",60617
41.73,-87.57,"{'house_number': '9058', 'road': 'South Luella Avenue', 'neighbourhood': 'Calumet Heights', 'city': 'Chicago', 'county': 'Cook County', 'state': 'Illinois', 'postcode': '60617', 'country': 'United States of America', 'country_code': 'us'}",60617
41.72,-87.54,"{'house_number': '9658', 'road': 'South Avenue N', 'neighbourhood': 'East Side', 'city': 'Chicago', 'county': 'Cook County', 'state': 'Illinois', 'postcode': '60617', 'country': 'United States of America', 'country_code': 'us'}",60617
41.71,-87.56,"{'house_number': '2662', 'road': 'East 102nd Street', 'neighbourhood': 'South Deering', 'city': 'Chicago', 'county': 'Cook County', 'state': 'Illinois', 'postcode': '60617', 'country': 'United States of America', 'country_code': 'us'}",60617
41.73,-87.56,"{'house_number': '2620', 'road': 'East 91st Street', 'neighbourhood': 'Calumet Heights', 'city': 'Chicago', 'county': 'Cook County', 'state': 'Illinois', 'postcode': '60617', 'country': 'United States of America', 'country_code': 'us'}",60617
41.74,-87.55,"{'house_number': '8539', 'road': 'South Houston Avenue', 'neighbourhood': 'South Chicago', 'city': 'Chicago', 'county': 'Cook County', 'state': 'Illinois', 'postcode': '60617', 'country': 'United States of America', 'country_code': 'us'}",60617
41.72,-87.58,"{'leisure': 'Marian R. Byrnes Park', 'house_number': '1735', 'road': 'East 96th Street', 'neighbourhood': 'South Deering', 'city': 'Chicago', 'county': 'Cook County', 'state': 'Illinois', 'postcode': '60617', 'country': 'United States of America', 'country_code': 'us'}",60617
41.75,-87.54,"{'road': 'South Lake Shore Drive', 'neighbourhood': 'South Chicago', 'city': 'Chicago', 'county': 'Cook County', 'state': 'Illinois', 'postcode': '60617', 'country': 'United States of America', 'country_code': 'us'}",60617
41.71,-87.57,"{'house_number': '2219', 'road': 'East 102nd Street', 'neighbourhood': 'South Deering', 'city': 'Chicago', 'county': 'Cook County', 'state': 'Illinois', 'postcode': '60617', 'country': 'United States of America', 'country_code': 'us'}",60617
41.72,-87.57,"{'house_number': '9642', 'road': 'South Merrion Avenue', 'neighbourhood': 'South Deering', 'city': 'Chicago', 'county': 'Cook County', 'state': 'Illinois', 'postcode': '60617', 'country': 'United States of America', 'country_code': 'us'}",60617
41.72,-87.55,"{'house_number': '9628', 'road': 'South Houston Avenue', 'neighbourhood': 'South Deering', 'city': 'Chicago', 'county': 'Cook County', 'state': 'Illinois', 'postcode': '60617', 'country': 'United States of America', 'country_code': 'us'}",60617
41.74,-87.54,"{'road': 'South Lake Shore Drive', 'neighbourhood': 'South Chicago', 'city': 'Chicago', 'county': 'Cook County', 'state': 'Illinois', 'postcode': '60617', 'country': 'United States of America', 'country_code': 'us'}",60617
41.71,-87.54,"{'house_number': '10150', 'road': 'South Avenue N', 'neighbourhood': 'East Side', 'city': 'Chicago', 'county': 'Cook County', 'state': 'Illinois', 'postcode': '60617', 'country': 'United States of America', 'country_code': 'us'}",60617
41.73,-87.54,"{'road': 'South Harbor Avenue', 'neighbourhood': 'South Chicago', 'city': 'Chicago', 'county': 'Cook County', 'state': 'Illinois', 'postcode': '60617', 'country': 'United States of America', 'country_code': 'us'}",60617
41.68,-87.58,"{'natural': 'Slip No. 6', 'road': 'South Stony Island Avenue', 'neighbourhood': 'South Deering', 'city': 'Chicago', 'county': 'Cook County', 'state': 'Illinois', 'postcode': '60617', 'country': 'United States of America', 'country_code': 'us'}",60617
41.72,-87.56,"{'house_number': '9625', 'road': 'South Colfax Avenue', 'neighbourhood': 'South Deering', 'city': 'Chicago', 'county': 'Cook County', 'state': 'Illinois', 'postcode': '60617', 'country': 'United States of America', 'country_code': 'us'}",60617
41.7,-87.55,"{'building': 'VM&I Corp', 'house_number': '10800', 'road': 'South Burley Avenue', 'neighbourhood': 'East Side', 'city': 'Chicago', 'county': 'Cook County', 'state': 'Illinois', 'postcode': '60617', 'country': 'United States of America', 'country_code': 'us'}",60617
41.67,-87.57,"{'amenity': 'Auto Warehousing Company', 'road': 'South Stony Island Avenue', 'neighbourhood': 'South Deering', 'city': 'Chicago', 'county': 'Cook County', 'state': 'Illinois', 'postcode': '60617', 'country': 'United States of America', 'country_code': 'us'}",60617
41.94,-87.72,"{'house_number': '3224', 'road': 'North Lawndale Avenue', 'neighbourhood': 'Avondale', 'city': 'Chicago', 'municipality': 'Jefferson Township', 'county': 'Cook County', 'state': 'Illinois', 'postcode': '60618', 'country': 'United States of America', 'country_code': 'us'}",60618
41.93,-87.72,"{'house_number': '2658', 'road': 'North Lawndale Avenue', 'neighbourhood': 'Pacific Junction', 'municipality': 'Jefferson Township', 'county': 'Cook County', 'state': 'Illinois', 'postcode': '60618', 'country': 'United States of America', 'country_code': 'us'}",60618
41.94,-87.7,"{'house_number': '3215-3217', 'road': 'North Francisco Avenue', 'neighbourhood': 'Avondale', 'city': 'Chicago', 'municipality': 'Jefferson Township', 'county': 'Cook County', 'state': 'Illinois', 'postcode': '60618', 'country': 'United States of America', 'country_code': 'us'}",60618
41.95,-87.69,"{'house_number': '2441', 'road': 'West Grace Street', 'neighbourhood': 'North Center', 'suburb': 'Roscoe Village', 'city': 'Chicago', 'municipality': 'Jefferson Township', 'county': 'Cook County', 'state': 'Illinois', 'postcode': '60618', 'country': 'United States of America', 'country_code': 'us'}",60618
41.94,-87.69,"{'amenity': 'Chicago Police Department 19th District', 'house_number': '2452', 'road': 'West Belmont Avenue', 'neighbourhood': 'North Center', 'suburb': 'Roscoe Village', 'city': 'Chicago', 'municipality': 'Jefferson Township', 'county': 'Cook County', 'state': 'Illinois', 'postcode': '60618', 'country': 'United States of America', 'country_code': 'us'}",60618
41.95,-87.72,"{'house_number': '3757', 'road': 'North Lawndale Avenue', 'neighbourhood': 'Irving Park', 'city': 'Chicago', 'municipality': 'Jefferson Township', 'county': 'Cook County', 'state': 'Illinois', 'postcode': '60618', 'country': 'United States of America', 'country_code': 'us'}",60618
41.96,-87.68,"{'house_number': '2024', 'road': 'West Cullom Avenue', 'neighbourhood': 'North Center', 'city': 'Chicago', 'county': 'Cook County', 'state': 'Illinois', 'postcode': '60618', 'country': 'United States of America', 'country_code': 'us'}",60618
41.94,-87.68,"{'house_number': '2040', 'road': 'West Belmont Avenue', 'neighbourhood': 'North Center', 'suburb': 'Roscoe Village', 'city': 'Chicago', 'county': 'Cook County', 'state': 'Illinois', 'postcode': '60618', 'country': 'United States of America', 'country_code': 'us'}",60618
41.95,-87.68,"{'house_number': '2030', 'road': 'West Bradley Place', 'neighbourhood': 'North Center', 'suburb': 'Roscoe Village', 'city': 'Chicago', 'county': 'Cook County', 'state': 'Illinois', 'postcode': '60618', 'country': 'United States of America', 'country_code': 'us'}",60618
41.94,-87.71,"{'road': 'Kennedy Expressway', 'neighbourhood': 'Avondale', 'city': 'Chicago', 'municipality': 'Jefferson Township', 'county': 'Cook County', 'state': 'Illinois', 'postcode': '60618', 'country': 'United States of America', 'country_code': 'us'}",60618
41.96,-87.69,"{'house_number': '2431', 'road': 'West Pensacola Avenue', 'neighbourhood': 'North Center', 'city': 'Chicago', 'municipality': 'Jefferson Township', 'county': 'Cook County', 'state': 'Illinois', 'postcode': '60618', 'country': 'United States of America', 'country_code': 'us'}",60618
41.73,-87.61,"{'building': 'Boiler House', 'house_number': '9040', 'road': 'South Saint Lawrence Avenue', 'neighbourhood': 'Chatham', 'city': 'Chicago', 'county': 'Cook County', 'state': 'Illinois', 'postcode': '60619', 'country': 'United States of America', 'country_code': 'us'}",60619
41.75,-87.59,"{'house_number': '7948', 'road': 'South Dante Avenue', 'neighbourhood': 'Avalon Park', 'city': 'Chicago', 'county': 'Cook County', 'state': 'Illinois', 'postcode': '60619', 'country': 'United States of America', 'country_code': 'us'}",60619
41.74,-87.63,"{'road': 'West 85th Street', 'retail': 'Chatham Market', 'city': 'Chicago', 'county': 'Cook County', 'state': 'Illinois', 'postcode': '60619', 'country': 'United States of America', 'country_code': 'us'}",60619
41.74,-87.61,"{'house_number': '8506', 'road': 'South Saint Lawrence Avenue', 'neighbourhood': 'Chatham', 'city': 'Chicago', 'county': 'Cook County', 'state': 'Illinois', 'postcode': '60619', 'country': 'United States of America', 'country_code': 'us'}",60619
41.76,-87.6,"{'road': 'Chicago Skyway', 'neighbourhood': 'Grand Crossing', 'city': 'Chicago', 'county': 'Cook County', 'state': 'Illinois', 'postcode': '60619', 'country': 'United States of America', 'country_code': 'us'}",60619
41.73,-87.6,"{'house_number': '9042', 'road': 'South Ellis Avenue', 'neighbourhood': 'Burnside', 'city': 'Chicago', 'county': 'Cook County', 'state': 'Illinois', 'postcode': '60619', 'country': 'United States of America', 'country_code': 'us'}",60619
41.75,-87.6,"{'house_number': '7945-7947', 'road': 'South Ellis Avenue', 'neighbourhood': 'Chatham', 'city': 'Chicago', 'county': 'Cook County', 'state': 'Illinois', 'postcode': '60619', 'country': 'United States of America', 'country_code': 'us'}",60619
41.74,-87.59,"{'house_number': '8517', 'road': 'South Dorchester Avenue', 'neighbourhood': 'Avalon Park', 'city': 'Chicago', 'county': 'Cook County', 'state': 'Illinois', 'postcode': '60619', 'country': 'United States of America', 'country_code': 'us'}",60619
41.76,-87.61,"{'house_number': '7407', 'road': 'South Saint Lawrence Avenue', 'neighbourhood': 'Chatham', 'city': 'Chicago', 'county': 'Cook County', 'state': 'Illinois', 'postcode': '60619', 'country': 'United States of America', 'country_code': 'us'}",60619
41.75,-87.61,"{'house_number': '7939', 'road': 'South Saint Lawrence Avenue', 'neighbourhood': 'Chatham', 'city': 'Chicago', 'county': 'Cook County', 'state': 'Illinois', 'postcode': '60619', 'country': 'United States of America', 'country_code': 'us'}",60619
41.74,-87.62,"{'amenity': 'Neil Elementary School', 'road': 'East 85th Street', 'neighbourhood': 'Chatham', 'city': 'Chicago', 'county': 'Cook County', 'state': 'Illinois', 'postcode': '60619', 'country': 'United States of America', 'country_code': 'us'}",60619
41.77,-87.6,"{'historic': 'Amos Blakemore (Junior Wells)', 'road': 'East 67th Street', 'neighbourhood': 'Woodlawn', 'city': 'Chicago', 'county': 'Cook County', 'state': 'Illinois', 'postcode': '60619', 'country': 'United States of America', 'country_code': 'us'}",60619
41.74,-87.6,"{'amenity': 'Arthur Ashe Elementary School', 'road': 'East 85th Street', 'neighbourhood': 'Chatham', 'city': 'Chicago', 'county': 'Cook County', 'state': 'Illinois', 'postcode': '60619', 'country': 'United States of America', 'country_code': 'us'}",60619
41.77,-87.61,"{'house_number': '6843', 'road': 'South Saint Lawrence Avenue', 'neighbourhood': 'Woodlawn', 'city': 'Chicago', 'county': 'Cook County', 'state': 'Illinois', 'postcode': '60619', 'country': 'United States of America', 'country_code': 'us'}",60619
41.73,-87.62,"{'house_number': '9021', 'road': 'South Michigan Avenue', 'neighbourhood': 'Chatham', 'city': 'Chicago', 'county': 'Cook County', 'state': 'Illinois', 'postcode': '60619', 'country': 'United States of America', 'country_code': 'us'}",60619
41.75,-87.66,"{'house_number': '7912', 'road': 'South Bishop Street', 'neighbourhood': 'Auburn Gresham', 'city': 'Chicago', 'county': 'Cook County', 'state': 'Illinois', 'postcode': '60620', 'country': 'United States of America', 'country_code': 'us'}",60620
41.84,-87.67,"{'building': 'Anthony Marano Co', 'house_number': '3000-3002', 'road': 'South Ashland Avenue', 'neighbourhood': 'Lower West Side', 'suburb': 'Pilsen', 'city': 'Chicago', 'county': 'Cook County', 'state': 'Illinois', 'postcode': '60620', 'country': 'United States of America', 'country_code': 'us'}",60620
41.75,-87.65,"{'house_number': '7915', 'road': 'South Carpenter Street', 'neighbourhood': 'Auburn Gresham', 'city': 'Chicago', 'county': 'Cook County', 'state': 'Illinois', 'postcode': '60620', 'country': 'United States of America', 'country_code': 'us'}",60620
41.74,-87.65,"{'house_number': '8450', 'road': 'South Carpenter Street', 'neighbourhood': 'Auburn Gresham', 'city': 'Chicago', 'county': 'Cook County', 'state': 'Illinois', 'postcode': '60620', 'country': 'United States of America', 'country_code': 'us'}",60620
41.75,-87.64,"{'house_number': '7923', 'road': 'South Lowe Avenue', 'neighbourhood': 'Auburn Gresham', 'city': 'Chicago', 'county': 'Cook County', 'state': 'Illinois', 'postcode': '60620', 'country': 'United States of America', 'country_code': 'us'}",60620
41.79,-87.65,"{'house_number': '5716', 'road': 'South Morgan Street', 'neighbourhood': 'New City', 'city': 'Chicago', 'county': 'Cook County', 'state': 'Illinois', 'postcode': '60620', 'country': 'United States of America', 'country_code': 'us'}",60620
41.73,-87.66,"{'house_number': '9011-9013', 'road': 'South Laflin Street', 'neighbourhood': 'Auburn Gresham', 'city': 'Chicago', 'county': 'Cook County', 'state': 'Illinois', 'postcode': '60620', 'country': 'United States of America', 'country_code': 'us'}",60620
41.75,-87.63,"{'house_number': '7926', 'road': 'South Wentworth Avenue', 'neighbourhood': 'Chatham', 'city': 'Chicago', 'county': 'Cook County', 'state': 'Illinois', 'postcode': '60620', 'country': 'United States of America', 'country_code': 'us'}",60620
41.73,-87.64,"{'house_number': '9024', 'road': 'South Lowe Avenue', 'neighbourhood': 'Washington Heights', 'city': 'Chicago', 'county': 'Cook County', 'state': 'Illinois', 'postcode': '60620', 'country': 'United States of America', 'country_code': 'us'}",60620
41.76,-87.63,"{'house_number': '7349-7355', 'road': 'South Vincennes Avenue', 'neighbourhood': 'Auburn Park', 'city': 'Chicago', 'county': 'Cook County', 'state': 'Illinois', 'postcode': '60620', 'country': 'United States of America', 'country_code': 'us'}",60620
41.74,-87.64,"{'house_number': '8512', 'road': 'South Vincennes Avenue', 'neighbourhood': 'Auburn Gresham', 'city': 'Chicago', 'county': 'Cook County', 'state': 'Illinois', 'postcode': '60620', 'country': 'United States of America', 'country_code': 'us'}",60620
41.73,-87.65,"{'house_number': '9012', 'road': 'South Carpenter Street', 'neighbourhood': 'Washington Heights', 'city': 'Chicago', 'county': 'Cook County', 'state': 'Illinois', 'postcode': '60620', 'country': 'United States of America', 'country_code': 'us'}",60620
41.75,-87.67,"{'shop': 'Dearborn Wholesale Grocers', 'house_number': '1841', 'road': 'West 79th Street', 'neighbourhood': 'Auburn Gresham', 'city': 'Chicago', 'county': 'Cook County', 'state': 'Illinois', 'postcode': '60620', 'country': 'United States of America', 'country_code': 'us'}",60620
41.74,-87.67,"{'house_number': '8441', 'road': 'South Wolcott Avenue', 'neighbourhood': 'Auburn Gresham', 'city': 'Chicago', 'county': 'Cook County', 'state': 'Illinois', 'postcode': '60620', 'country': 'United States of America', 'country_code': 'us'}",60620
41.74,-87.66,"{'house_number': '1496', 'road': 'West 85th Street', 'neighbourhood': 'Auburn Gresham', 'city': 'Chicago', 'county': 'Cook County', 'state': 'Illinois', 'postcode': '60620', 'country': 'United States of America', 'country_code': 'us'}",60620
41.72,-87.64,"{'house_number': '9550', 'road': 'South Lowe Avenue', 'neighbourhood': 'Washington Heights', 'city': 'Chicago', 'county': 'Cook County', 'state': 'Illinois', 'postcode': '60620', 'country': 'United States of America', 'country_code': 'us'}",60620
41.73,-87.63,"{'house_number': '224-238', 'road': 'West 90th Place', 'residential': 'Princeton Park', 'city': 'Chicago', 'county': 'Cook County', 'state': 'Illinois', 'postcode': '60620', 'country': 'United States of America', 'country_code': 'us'}",60620
41.77,-87.65,"{'house_number': '6813', 'road': 'South Carpenter Street', 'neighbourhood': 'Englewood', 'city': 'Chicago', 'county': 'Cook County', 'state': 'Illinois', 'postcode': '60621', 'country': 'United States of America', 'country_code': 'us'}",60621
41.79,-87.62,"{'house_number': '5745', 'road': 'South Indiana Avenue', 'neighbourhood': 'Washington Park', 'city': 'Chicago', 'county': 'Cook County', 'state': 'Illinois', 'postcode': '60621', 'country': 'United States of America', 'country_code': 'us'}",60621
41.78,-87.64,"{'house_number': '6293', 'road': 'South Wallace Street', 'neighbourhood': 'Englewood', 'city': 'Chicago', 'county': 'Cook County', 'state': 'Illinois', 'postcode': '60621', 'country': 'United States of America', 'country_code': 'us'}",60621
41.76,-87.65,"{'house_number': '7351', 'road': 'South Carpenter Street', 'neighbourhood': 'Englewood', 'city': 'Chicago', 'county': 'Cook County', 'state': 'Illinois', 'postcode': '60621', 'country': 'United States of America', 'country_code': 'us'}",60621
41.77,-87.63,"{'house_number': '6852', 'road': 'South Wentworth Avenue', 'city': 'Chicago', 'county': 'Cook County', 'state': 'Illinois', 'postcode': '60621', 'country': 'United States of America', 'country_code': 'us'}",60621
41.79,-87.64,"{'house_number': '540', 'road': 'West 57th Place', 'city': 'Chicago', 'county': 'Cook County', 'state': 'Illinois', 'postcode': '60621', 'country': 'United States of America', 'country_code': 'us'}",60621
41.77,-87.64,"{'house_number': '7038', 'road': 'South Wallace Street', 'neighbourhood': 'Becks Park', 'city': 'Chicago', 'county': 'Cook County', 'state': 'Illinois', 'postcode': '60621', 'country': 'United States of America', 'country_code': 'us'}",60621
41.79,-87.63,"{'house_number': '150', 'road': 'West 57th Place', 'city': 'Chicago', 'county': 'Cook County', 'state': 'Illinois', 'postcode': '60621', 'country': 'United States of America', 'country_code': 'us'}",60621
41.76,-87.64,"{'house_number': '7359', 'road': 'South Lowe Avenue', 'neighbourhood': 'Auburn Park', 'city': 'Chicago', 'county': 'Cook County', 'state': 'Illinois', 'postcode': '60621', 'country': 'United States of America', 'country_code': 'us'}",60621
41.8,-87.63,"{'building': 'Department of Fleet Management - Bureau of Police Motor Maintenance', 'house_number': '5219', 'road': 'South Wentworth Avenue', 'neighbourhood': 'Fuller Park', 'city': 'Chicago', 'county': 'Cook County', 'state': 'Illinois', 'postcode': '60621', 'country': 'United States of America', 'country_code': 'us'}",60621
41.91,-87.65,"{'house_number': '1523', 'road': 'North Fremont Street', 'neighbourhood': 'Chicago River North', 'suburb': 'Lincoln Park', 'city': 'Chicago', 'county': 'Cook County', 'state': 'Illinois', 'postcode': '60622', 'country': 'United States of America', 'country_code': 'us'}",60622
41.9,-87.7,"{'amenity': 'Norwegian American Hospital', 'house_number': '1044', 'road': 'North Francisco Avenue', 'neighbourhood': 'West Town', 'city': 'Chicago', 'county': 'Cook County', 'state': 'Illinois', 'postcode': '60622', 'country': 'United States of America', 'country_code': 'us'}",60622
41.9,-87.69,"{'house_number': '2515', 'road': 'West Cortez Street', 'neighbourhood': 'West Town', 'city': 'Chicago', 'county': 'Cook County', 'state': 'Illinois', 'postcode': '60622', 'country': 'United States of America', 'country_code': 'us'}",60622
41.91,-87.68,"{'house_number': '1564', 'road': 'North Hoyne Avenue', 'neighbourhood': 'West Town', 'city': 'Chicago', 'county': 'Cook County', 'state': 'Illinois', 'postcode': '60622', 'country': 'United States of America', 'country_code': 'us'}",60622
41.9,-87.68,"{'house_number': '1012', 'road': 'North Hoyne Avenue', 'neighbourhood': 'West Town', 'city': 'Chicago', 'county': 'Cook County', 'state': 'Illinois', 'postcode': '60622', 'country': 'United States of America', 'country_code': 'us'}",60622
41.91,-87.67,"{'house_number': '1529', 'road': 'North Paulina Street', 'neighbourhood': 'West Town', 'city': 'Chicago', 'county': 'Cook County', 'state': 'Illinois', 'postcode': '60622', 'country': 'United States of America', 'country_code': 'us'}",60622
41.9,-87.65,"{'road': 'North Branch Street', 'neighbourhood': 'Chicago River North', 'city': 'Chicago', 'county': 'Cook County', 'state': 'Illinois', 'postcode': '60622', 'country': 'United States of America', 'country_code': 'us'}",60622
41.85,-87.68,"{'house_number': '2145', 'road': 'West 23rd Street', 'neighbourhood': 'Lower West Side', 'city': 'Chicago', 'county': 'Cook County', 'state': 'Illinois', 'postcode': '60623', 'country': 'United States of America', 'country_code': 'us'}",60623
41.85,-87.72,"{'house_number': '2256', 'road': 'South Hamlin Avenue', 'neighbourhood': 'South Lawndale', 'city': 'Chicago', 'county': 'Cook County', 'state': 'Illinois', 'postcode': '60623', 'country': 'United States of America', 'country_code': 'us'}",60623
41.86,-87.72,"{'house_number': '1525', 'road': 'South Hamlin Avenue', 'neighbourhood': 'North Lawndale', 'city': 'Chicago', 'county': 'Cook County', 'state': 'Illinois', 'postcode': '60623', 'country': 'United States of America', 'country_code': 'us'}",60623
41.85,-87.71,"{'house_number': '2253', 'road': 'South Homan Avenue', 'neighbourhood': 'South Lawndale', 'city': 'Chicago', 'county': 'Cook County', 'state': 'Illinois', 'postcode': '60623', 'country': 'United States of America', 'country_code': 'us'}",60623
41.84,-87.72,"{'house_number': '2820', 'road': 'South Hamlin Avenue', 'neighbourhood': 'South Lawndale', 'city': 'Chicago', 'county': 'Cook County', 'state': 'Illinois', 'postcode': '60623', 'country': 'United States of America', 'country_code': 'us'}",60623
41.85,-87.7,"{'house_number': '2971', 'road': 'West 23rd Street', 'neighbourhood': 'South Lawndale', 'city': 'Chicago', 'county': 'Cook County', 'state': 'Illinois', 'postcode': '60623', 'country': 'United States of America', 'country_code': 'us'}",60623
41.84,-87.71,"{'house_number': '2826', 'road': 'South Homan Avenue', 'neighbourhood': 'South Lawndale', 'city': 'Chicago', 'county': 'Cook County', 'state': 'Illinois', 'postcode': '60623', 'country': 'United States of America', 'country_code': 'us'}",60623
41.86,-87.7,"{'road': 'West Ogden Avenue', 'neighbourhood': 'North Lawndale', 'city': 'Chicago', 'county': 'Cook County', 'state': 'Illinois', 'postcode': '60623', 'country': 'United States of America', 'country_code': 'us'}",60623
41.86,-87.71,"{'house_number': '1529', 'road': 'South Homan Avenue', 'neighbourhood': 'North Lawndale', 'city': 'Chicago', 'county': 'Cook County', 'state': 'Illinois', 'postcode': '60623', 'country': 'United States of America', 'country_code': 'us'}",60623
41.86,-87.73,"{'house_number': '1518', 'road': 'South Keeler Avenue', 'neighbourhood': 'North Lawndale', 'city': 'Chicago', 'county': 'Cook County', 'state': 'Illinois', 'postcode': '60623', 'country': 'United States of America', 'country_code': 'us'}",60623
41.83,-87.72,"{'house_number': '3498', 'road': 'South Hamlin Avenue', 'industrial': 'Crawford Station', 'city': 'Chicago', 'county': 'Cook County', 'state': 'Illinois', 'postcode': '60623', 'country': 'United States of America', 'country_code': 'us'}",60623
41.85,-87.73,"{'house_number': '2248', 'road': 'South Keeler Avenue', 'neighbourhood': 'North Lawndale', 'city': 'Chicago', 'county': 'Cook County', 'state': 'Illinois', 'postcode': '60623', 'country': 'United States of America', 'country_code': 'us'}",60623
41.84,-87.73,"{'house_number': '2819', 'road': 'South Tripp Avenue', 'neighbourhood': 'South Lawndale', 'city': 'Chicago', 'county': 'Cook County', 'state': 'Illinois', 'postcode': '60623', 'country': 'United States of America', 'country_code': 'us'}",60623
41.86,-87.74,"{'road': 'West 16th Street', 'town': 'Cicero', 'county': 'Cook County', 'state': 'Illinois', 'postcode': '60623', 'country': 'United States of America', 'country_code': 'us'}",60623
41.89,-87.71,"{'road': 'West Franklin Boulevard', 'neighbourhood': 'Humboldt Park', 'city': 'Chicago', 'county': 'Cook County', 'state': 'Illinois', 'postcode': '60624', 'country': 'United States of America', 'country_code': 'us'}",60624
41.87,-87.73,"{'house_number': '4155', 'road': 'West Arthington Street', 'neighbourhood': 'West Garfield Park', 'city': 'Chicago', 'county': 'Cook County', 'state': 'Illinois', 'postcode': '60624', 'country': 'United States of America', 'country_code': 'us'}",60624
41.88,-87.73,"{'amenity': 'St. Michael MB Church', 'house_number': '4126', 'road': 'West Monroe Street', 'neighbourhood': 'West Garfield Park', 'city': 'Chicago', 'county': 'Cook County', 'state': 'Illinois', 'postcode': '60624', 'country': 'United States of America', 'country_code': 'us'}",60624
41.87,-87.69,"{'house_number': '2539', 'road': 'West Arthington Street', 'neighbourhood': 'Near West Side', 'suburb': 'Illinois Medical District', 'city': 'Chicago', 'county': 'Cook County', 'state': 'Illinois', 'postcode': '60624', 'country': 'United States of America', 'country_code': 'us'}",60624
41.87,-87.71,"{'house_number': '3315-3357', 'road': 'West Arthington Street', 'neighbourhood': 'East Garfield Park', 'city': 'Chicago', 'county': 'Cook County', 'state': 'Illinois', 'postcode': '60624', 'country': 'United States of America', 'country_code': 'us'}",60624
41.89,-87.72,"{'amenity': 'Garfield Park Behavioral Hospital', 'house_number': '520', 'road': 'North Ridgeway Avenue', 'neighbourhood': 'Humboldt Park', 'city': 'Chicago', 'county': 'Cook County', 'state': 'Illinois', 'postcode': '60624', 'country': 'United States of America', 'country_code': 'us'}",60624
41.87,-87.72,"{'house_number': '820', 'road': 'South Independence Boulevard', 'neighbourhood': 'East Garfield Park', 'city': 'Chicago', 'county': 'Cook County', 'state': 'Illinois', 'postcode': '60624', 'country': 'United States of America', 'country_code': 'us'}",60624
41.87,-87.7,"{'house_number': '2939', 'road': 'West Arthington Street', 'neighbourhood': 'East Garfield Park', 'city': 'Chicago', 'county': 'Cook County', 'state': 'Illinois', 'postcode': '60624', 'country': 'United States of America', 'country_code': 'us'}",60624
41.88,-87.71,"{'house_number': '3346', 'road': 'West Monroe Street', 'neighbourhood': 'East Garfield Park', 'city': 'Chicago', 'county': 'Cook County', 'state': 'Illinois', 'postcode': '60624', 'country': 'United States of America', 'country_code': 'us'}",60624
41.88,-87.72,"{'leisure': 'Water Courts Formal Garden', 'road': 'West Madison Street', 'neighbourhood': 'East Garfield Park', 'city': 'Chicago', 'county': 'Cook County', 'state': 'Illinois', 'postcode': '60624', 'country': 'United States of America', 'country_code': 'us'}",60624
41.88,-87.74,"{'house_number': '4534', 'road': 'West Monroe Street', 'neighbourhood': 'West Garfield Park', 'city': 'Chicago', 'county': 'Cook County', 'state': 'Illinois', 'postcode': '60624', 'country': 'United States of America', 'country_code': 'us'}",60624
41.89,-87.74,"{'house_number': '600', 'road': 'North Kilbourn Avenue', 'neighbourhood': 'West Garfield Park', 'city': 'Chicago', 'county': 'Cook County', 'state': 'Illinois', 'postcode': '60624', 'country': 'United States of America', 'country_code': 'us'}",60624
41.87,-87.74,"{'house_number': '814-820', 'road': 'South Kolmar Avenue', 'neighbourhood': 'West Garfield Park', 'city': 'Chicago', 'county': 'Cook County', 'state': 'Illinois', 'postcode': '60624', 'country': 'United States of America', 'country_code': 'us'}",60624
41.97,-87.69,"{'house_number': '2422', 'road': 'West Gunnison Street', 'neighbourhood': 'Lincoln Square', 'city': 'Chicago', 'municipality': 'Jefferson Township', 'county': 'Cook County', 'state': 'Illinois', 'postcode': '60625', 'country': 'United States of America', 'country_code': 'us'}",60625
41.97,-87.72,"{'house_number': '4854', 'road': 'North Monticello Avenue', 'neighbourhood': 'Albany Park', 'city': 'Chicago', 'municipality': 'Jefferson Township', 'county': 'Cook County', 'state': 'Illinois', 'postcode': '60625', 'country': 'United States of America', 'country_code': 'us'}",60625
41.96,-87.71,"{'house_number': '4322', 'road': 'North Sawyer Avenue', 'neighbourhood': 'Albany Park', 'municipality': 'Jefferson Township', 'county': 'Cook County', 'state': 'Illinois', 'postcode': '60625', 'country': 'United States of America', 'country_code': 'us'}",60625
41.95,-87.7,"{'house_number': '3753', 'road': 'North Francisco Avenue', 'neighbourhood': 'Albany Park', 'city': 'Chicago', 'municipality': 'Jefferson Township', 'county': 'Cook County', 'state': 'Illinois', 'postcode': '60625', 'country': 'United States of America', 'country_code': 'us'}",60625
41.96,-87.7,"{'house_number': '4318', 'road': 'North Mozart Street', 'neighbourhood': 'Irving Park', 'city': 'Chicago', 'municipality': 'Jefferson Township', 'county': 'Cook County', 'state': 'Illinois', 'postcode': '60625', 'country': 'United States of America', 'country_code': 'us'}",60625
41.98,-87.72,"{'amenity': 'Northeastern Illinois University', 'road': 'West Catalpa Avenue', 'neighbourhood': 'North Park', 'city': 'Chicago', 'municipality': 'Jefferson Township', 'county': 'Cook County', 'state': 'Illinois', 'postcode': '60625', 'country': 'United States of America', 'country_code': 'us'}",60625
41.98,-87.7,"{'house_number': '2821', 'road': 'West Rascher Avenue', 'neighbourhood': 'Lincoln Square', 'city': 'Chicago', 'municipality': 'Jefferson Township', 'county': 'Cook County', 'state': 'Illinois', 'postcode': '60625', 'country': 'United States of America', 'country_code': 'us'}",60625
41.97,-87.71,"{'amenity': 'Chicago Korean Seventh Day Adventist Church', 'house_number': '4852-4854', 'road': 'North Sawyer Avenue', 'neighbourhood': 'Albany Park', 'city': 'Chicago', 'municipality': 'Jefferson Township', 'county': 'Cook County', 'state': 'Illinois', 'postcode': '60625', 'country': 'United States of America', 'country_code': 'us'}",60625
41.97,-87.68,"{'house_number': '4843', 'road': 'North Seeley Avenue', 'neighbourhood': 'Lincoln Square', 'city': 'Chicago', 'county': 'Cook County', 'state': 'Illinois', 'postcode': '60625', 'country': 'United States of America', 'country_code': 'us'}",60625
41.96,-87.72,"{'house_number': '4325', 'road': 'North Lawndale Avenue', 'neighbourhood': 'Irving Park', 'city': 'Chicago', 'municipality': 'Jefferson Township', 'county': 'Cook County', 'state': 'Illinois', 'postcode': '60625', 'country': 'United States of America', 'country_code': 'us'}",60625
41.98,-87.71,"{'house_number': '5417', 'road': 'North Sawyer Avenue', 'neighbourhood': 'North Park', 'city': 'Chicago', 'municipality': 'Jefferson Township', 'county': 'Cook County', 'state': 'Illinois', 'postcode': '60625', 'country': 'United States of America', 'country_code': 'us'}",60625
42.02,-87.67,"{'house_number': '7616', 'road': 'North Bosworth Avenue', 'neighbourhood': 'Rogers Park', 'suburb': 'Rogers Park', 'city': 'Chicago', 'county': 'Cook County', 'state': 'Illinois', 'postcode': '60626', 'country': 'United States of America', 'country_code': 'us'}",60626
42,-87.67,"{'house_number': '6501-6505', 'road': 'North Ashland Avenue', 'neighbourhood': 'Rogers Park', 'suburb': 'Rogers Park', 'city': 'Chicago', 'county': 'Cook County', 'state': 'Illinois', 'postcode': '60626', 'country': 'United States of America', 'country_code': 'us'}",60626
42.01,-87.66,"{'natural': 'Loyola Beach', 'road': 'West Morse Avenue', 'neighbourhood': 'Rogers Park', 'city': 'Chicago', 'county': 'Cook County', 'state': 'Illinois', 'postcode': '60626', 'country': 'United States of America', 'country_code': 'us'}",60626
42.02,-87.66,"{'natural': 'Howard Beach', 'road': 'West Howard Street', 'neighbourhood': 'Rogers Park', 'suburb': 'Rogers Park', 'city': 'Chicago', 'county': 'Cook County', 'state': 'Illinois', 'postcode': '60626', 'country': 'United States of America', 'country_code': 'us'}",60626
41.71,-87.61,"{'house_number': '10133', 'road': 'South Rhodes Avenue', 'neighbourhood': 'Roseland', 'city': 'Chicago', 'county': 'Cook County', 'state': 'Illinois', 'postcode': '60628', 'country': 'United States of America', 'country_code': 'us'}",60628
41.7,-87.64,"{'house_number': '10659', 'road': 'South Union Avenue', 'neighbourhood': 'Roseland', 'city': 'Chicago', 'county': 'Cook County', 'state': 'Illinois', 'postcode': '60628', 'country': 'United States of America', 'country_code': 'us'}",60628
41.71,-87.6,"{'house_number': '917-933', 'road': 'East 101st Street', 'residential': 'London Towne Houses', 'city': 'Chicago', 'county': 'Cook County', 'state': 'Illinois', 'postcode': '60628', 'country': 'United States of America', 'country_code': 'us'}",60628
41.77,-87.62,"{'house_number': '6837', 'road': 'South Indiana Avenue', 'neighbourhood': 'Chatham', 'city': 'Chicago', 'county': 'Cook County', 'state': 'Illinois', 'postcode': '60628', 'country': 'United States of America', 'country_code': 'us'}",60628
41.67,-87.62,"{'house_number': '12321', 'road': 'South Michigan Avenue', 'neighbourhood': 'Cookes Subdivision', 'city': 'Chicago', 'county': 'Cook County', 'state': 'Illinois', 'postcode': '60628', 'country': 'United States of America', 'country_code': 'us'}",60628
41.66,-87.64,"{'house_number': '12847', 'road': 'South Emerald Avenue', 'neighbourhood': 'West Pullman', 'city': 'Chicago', 'county': 'Cook County', 'state': 'Illinois', 'postcode': '60628', 'country': 'United States of America', 'country_code': 'us'}",60628
41.69,-87.6,"{'house_number': '11241', 'road': 'South Doty Avenue', 'neighbourhood': 'Riverdale', 'city': 'Chicago', 'county': 'Cook County', 'state': 'Illinois', 'postcode': '60628', 'country': 'United States of America', 'country_code': 'us'}",60628
41.71,-87.59,"{'amenity': 'Olive-Harvey College', 'house_number': '10001', 'road': 'South Woodlawn Avenue', 'neighbourhood': 'Pullman', 'city': 'Chicago', 'county': 'Cook County', 'state': 'Illinois', 'postcode': '60628', 'country': 'United States of America', 'country_code': 'us'}",60628
41.72,-87.62,"{'house_number': '100', 'road': 'East 96th Street', 'neighbourhood': 'Roseland', 'city': 'Chicago', 'county': 'Cook County', 'state': 'Illinois', 'postcode': '60628', 'country': 'United States of America', 'country_code': 'us'}",60628
41.7,-87.62,"{'house_number': '118', 'road': 'East 107th Street', 'neighbourhood': 'Roseland', 'city': 'Chicago', 'county': 'Cook County', 'state': 'Illinois', 'postcode': '60628', 'country': 'United States of America', 'country_code': 'us'}",60628
41.67,-87.64,"{'house_number': '12315', 'road': 'South Emerald Avenue', 'neighbourhood': 'West Pullman', 'city': 'Chicago', 'county': 'Cook County', 'state': 'Illinois', 'postcode': '60628', 'country': 'United States of America', 'country_code': 'us'}",60628
41.76,-87.62,"{'house_number': '7400', 'road': 'South Indiana Avenue', 'neighbourhood': 'Chatham', 'city': 'Chicago', 'county': 'Cook County', 'state': 'Illinois', 'postcode': '60628', 'country': 'United States of America', 'country_code': 'us'}",60628
41.69,-87.63,"{'house_number': '252', 'road': 'West 112th Place', 'neighbourhood': 'Roseland', 'city': 'Chicago', 'county': 'Cook County', 'state': 'Illinois', 'postcode': '60628', 'country': 'United States of America', 'country_code': 'us'}",60628
41.69,-87.64,"{'house_number': '11216', 'road': 'South Union Avenue', 'neighbourhood': 'Roseland', 'city': 'Chicago', 'county': 'Cook County', 'state': 'Illinois', 'postcode': '60628', 'country': 'United States of America', 'country_code': 'us'}",60628
41.71,-87.63,"{'house_number': '10122', 'road': 'South Yale Avenue', 'neighbourhood': 'Roseland', 'city': 'Chicago', 'county': 'Cook County', 'state': 'Illinois', 'postcode': '60628', 'country': 'United States of America', 'country_code': 'us'}",60628
41.68,-87.62,"{'house_number': '119', 'road': 'East 118th Street', 'city': 'Chicago', 'county': 'Cook County', 'state': 'Illinois', 'postcode': '60628', 'country': 'United States of America', 'country_code': 'us'}",60628
41.72,-87.63,"{'house_number': '9558', 'road': 'South Yale Avenue', 'neighbourhood': 'Roseland', 'city': 'Chicago', 'county': 'Cook County', 'state': 'Illinois', 'postcode': '60628', 'country': 'United States of America', 'country_code': 'us'}",60628
41.7,-87.6,"{'house_number': '10800-10830', 'road': 'South Doty Avenue', 'neighbourhood': 'Pullman', 'city': 'Chicago', 'county': 'Cook County', 'state': 'Illinois', 'postcode': '60628', 'country': 'United States of America', 'country_code': 'us'}",60628
41.75,-87.62,"{'house_number': '7932', 'road': 'South Indiana Avenue', 'neighbourhood': 'Chatham', 'city': 'Chicago', 'county': 'Cook County', 'state': 'Illinois', 'postcode': '60628', 'country': 'United States of America', 'country_code': 'us'}",60628
41.71,-87.64,"{'house_number': '10119', 'road': 'South Union Avenue', 'neighbourhood': 'Washington Heights', 'city': 'Chicago', 'county': 'Cook County', 'state': 'Illinois', 'postcode': '60628', 'country': 'United States of America', 'country_code': 'us'}",60628
41.69,-87.61,"{'building': 'Auto Driveaway', 'house_number': '11235', 'road': 'South Cottage Grove Avenue', 'neighbourhood': 'Pullman', 'city': 'Chicago', 'county': 'Cook County', 'state': 'Illinois', 'postcode': '60628', 'country': 'United States of America', 'country_code': 'us'}",60628
41.69,-87.62,"{'house_number': '11228-11234', 'road': 'South Edbrooke Avenue', 'neighbourhood': 'Roseland', 'city': 'Chicago', 'county': 'Cook County', 'state': 'Illinois', 'postcode': '60628', 'country': 'United States of America', 'country_code': 'us'}",60628
41.66,-87.62,"{'road': 'South Indiana Avenue', 'neighbourhood': 'Cookes Subdivision', 'city': 'Chicago', 'county': 'Cook County', 'state': 'Illinois', 'postcode': '60628', 'country': 'United States of America', 'country_code': 'us'}",60628
41.67,-87.63,"{'natural': 'West Pullman Woodland', 'road': 'South Princeton Avenue', 'neighbourhood': 'Gano', 'city': 'Chicago', 'county': 'Cook County', 'state': 'Illinois', 'postcode': '60628', 'country': 'United States of America', 'country_code': 'us'}",60628
41.66,-87.61,"{'road': 'East 130th Street', 'neighbourhood': 'Riverdale', 'city': 'Chicago', 'county': 'Cook County', 'state': 'Illinois', 'postcode': '60628', 'country': 'United States of America', 'country_code': 'us'}",60628
41.7,-87.61,"{'house_number': '521', 'road': 'East 107th Street', 'neighbourhood': 'Roseland', 'city': 'Chicago', 'county': 'Cook County', 'state': 'Illinois', 'postcode': '60628', 'country': 'United States of America', 'country_code': 'us'}",60628
41.71,-87.62,"{'house_number': '80', 'road': 'East 101st Place', 'neighbourhood': 'Roseland', 'city': 'Chicago', 'county': 'Cook County', 'state': 'Illinois', 'postcode': '60628', 'country': 'United States of America', 'country_code': 'us'}",60628
41.66,-87.6,"{'road': 'East 130th Street', 'neighbourhood': 'Riverdale', 'city': 'Chicago', 'county': 'Cook County', 'state': 'Illinois', 'postcode': '60628', 'country': 'United States of America', 'country_code': 'us'}",60628
41.7,-87.59,"{'leisure': 'Harborside International Golf Center', 'house_number': '11101', 'road': 'South Doty Avenue', 'neighbourhood': 'South Deering', 'city': 'Chicago', 'county': 'Cook County', 'state': 'Illinois', 'postcode': '60628', 'country': 'United States of America', 'country_code': 'us'}",60628
41.68,-87.61,"{'house_number': '11861', 'road': 'South Cottage Grove Avenue', 'neighbourhood': 'Riverdale', 'city': 'Chicago', 'county': 'Cook County', 'state': 'Illinois', 'postcode': '60628', 'country': 'United States of America', 'country_code': 'us'}",60628
41.72,-87.61,"{'amenity': 'Chicago State University', 'road': 'East 98th Street', 'neighbourhood': 'Pullman', 'city': 'Chicago', 'county': 'Cook County', 'state': 'Illinois', 'postcode': '60628', 'country': 'United States of America', 'country_code': 'us'}",60628
41.66,-87.63,"{'natural': 'Mittal Woods', 'road': 'West 127th Street', 'neighbourhood': 'Andrews and Hurds Subdivision', 'city': 'Chicago', 'county': 'Cook County', 'state': 'Illinois', 'postcode': '60628', 'country': 'United States of America', 'country_code': 'us'}",60628
41.79,-87.71,"{'house_number': '5654', 'road': 'South Trumbull Avenue', 'neighbourhood': 'Gage Park', 'city': 'Chicago', 'county': 'Cook County', 'state': 'Illinois', 'postcode': '60629', 'country': 'United States of America', 'country_code': 'us'}",60629
41.79,-87.72,"{'house_number': '3846', 'road': 'West 57th Street', 'neighbourhood': 'West Elsdon', 'city': 'Chicago', 'county': 'Cook County', 'state': 'Illinois', 'postcode': '60629', 'country': 'United States of America', 'country_code': 'us'}",60629
41.78,-87.69,"{'house_number': '6230', 'road': 'South Talman Avenue', 'neighbourhood': 'Gage Park', 'city': 'Chicago', 'county': 'Cook County', 'state': 'Illinois', 'postcode': '60629', 'country': 'United States of America', 'country_code': 'us'}",60629
41.78,-87.73,"{'house_number': '6213', 'road': 'South Kildare Avenue', 'neighbourhood': 'West Lawn', 'city': 'Chicago', 'county': 'Cook County', 'state': 'Illinois', 'postcode': '60629', 'country': 'United States of America', 'country_code': 'us'}",60629
41.79,-87.7,"{'house_number': '5656', 'road': 'South Whipple Street', 'neighbourhood': 'Chicago Lawn', 'city': 'Chicago', 'county': 'Cook County', 'state': 'Illinois', 'postcode': '60629', 'country': 'United States of America', 'country_code': 'us'}",60629
41.77,-87.74,"{'amenity': 'Mariano Azuela Elementary School', 'house_number': '4707', 'road': 'West Marquette Road', 'neighbourhood': 'West Lawn', 'village': 'Bedford Park', 'municipality': 'Stickney Township', 'county': 'Cook County', 'state': 'Illinois', 'postcode': '60629', 'country': 'United States of America', 'country_code': 'us'}",60629
41.76,-87.69,"{'house_number': '7331', 'road': 'South Washtenaw Avenue', 'neighbourhood': 'Chicago Lawn', 'city': 'Chicago', 'county': 'Cook County', 'state': 'Illinois', 'postcode': '60629', 'country': 'United States of America', 'country_code': 'us'}",60629
41.79,-87.69,"{'house_number': '5701', 'road': 'South Talman Avenue', 'neighbourhood': 'Gage Park', 'city': 'Chicago', 'county': 'Cook County', 'state': 'Illinois', 'postcode': '60629', 'country': 'United States of America', 'country_code': 'us'}",60629
41.77,-87.73,"{'house_number': '6744', 'road': 'South Kildare Avenue', 'neighbourhood': 'West Lawn', 'city': 'Chicago', 'county': 'Cook County', 'state': 'Illinois', 'postcode': '60629', 'country': 'United States of America', 'country_code': 'us'}",60629
41.77,-87.72,"{'house_number': '6765', 'road': 'South Springfield Avenue', 'neighbourhood': 'West Lawn', 'city': 'Chicago', 'county': 'Cook County', 'state': 'Illinois', 'postcode': '60629', 'country': 'United States of America', 'country_code': 'us'}",60629
41.81,-87.73,"{'house_number': '4566-4600', 'road': 'South Tripp Avenue', 'neighbourhood': 'Archer Heights', 'city': 'Chicago', 'county': 'Cook County', 'state': 'Illinois', 'postcode': '60629', 'country': 'United States of America', 'country_code': 'us'}",60629
41.78,-87.7,"{'house_number': '6228', 'road': 'South Whipple Street', 'neighbourhood': 'Chicago Lawn', 'city': 'Chicago', 'county': 'Cook County', 'state': 'Illinois', 'postcode': '60629', 'country': 'United States of America', 'country_code': 'us'}",60629
41.76,-87.7,"{'house_number': '7327', 'road': 'South Albany Avenue', 'neighbourhood': 'Chicago Lawn', 'city': 'Chicago', 'county': 'Cook County', 'state': 'Illinois', 'postcode': '60629', 'country': 'United States of America', 'country_code': 'us'}",60629
41.78,-87.72,"{'house_number': '6200', 'road': 'South Hamlin Avenue', 'neighbourhood': 'West Elsdon', 'city': 'Chicago', 'county': 'Cook County', 'state': 'Illinois', 'postcode': '60629', 'country': 'United States of America', 'country_code': 'us'}",60629
41.78,-87.74,"{'house_number': '6210', 'road': 'South Kilpatrick Avenue', 'neighbourhood': 'Clearing', 'city': 'Chicago', 'county': 'Cook County', 'state': 'Illinois', 'postcode': '60629', 'country': 'United States of America', 'country_code': 'us'}",60629
41.8,-87.73,"{'house_number': '5112', 'road': 'South Tripp Avenue', 'neighbourhood': 'Archer Heights', 'city': 'Chicago', 'county': 'Cook County', 'state': 'Illinois', 'postcode': '60629', 'country': 'United States of America', 'country_code': 'us'}",60629
41.78,-87.71,"{'house_number': '3450', 'road': 'West 62nd Place', 'neighbourhood': 'Chicago Lawn', 'city': 'Chicago', 'county': 'Cook County', 'state': 'Illinois', 'postcode': '60629', 'country': 'United States of America', 'country_code': 'us'}",60629
41.76,-87.74,"{'house_number': '4501-4651', 'road': 'West 72nd Street', 'neighbourhood': 'West Lawn', 'village': 'Bedford Park', 'municipality': 'Stickney Township', 'county': 'Cook County', 'state': 'Illinois', 'postcode': '60629', 'country': 'United States of America', 'country_code': 'us'}",60629
41.77,-87.69,"{'house_number': '2672', 'road': 'West 68th Street', 'neighbourhood': 'Chicago Lawn', 'city': 'Chicago', 'county': 'Cook County', 'state': 'Illinois', 'postcode': '60629', 'country': 'United States of America', 'country_code': 'us'}",60629
41.76,-87.71,"{'house_number': '7321', 'road': 'South Saint Louis Avenue', 'neighbourhood': 'Chicago Lawn', 'city': 'Chicago', 'county': 'Cook County', 'state': 'Illinois', 'postcode': '60629', 'country': 'United States of America', 'country_code': 'us'}",60629
41.79,-87.73,"{'house_number': '5645', 'road': 'South Kildare Avenue', 'neighbourhood': 'West Lawn', 'city': 'Chicago', 'county': 'Cook County', 'state': 'Illinois', 'postcode': '60629', 'country': 'United States of America', 'country_code': 'us'}",60629
41.77,-87.7,"{'road': 'Mann Drive', 'neighbourhood': 'Chicago Lawn', 'city': 'Chicago', 'county': 'Cook County', 'state': 'Illinois', 'postcode': '60629', 'country': 'United States of America', 'country_code': 'us'}",60629
41.97,-87.76,"{'road': 'Kennedy Expressway', 'neighbourhood': 'Jefferson Park', 'city': 'Chicago', 'municipality': 'Jefferson Township', 'county': 'Cook County', 'state': 'Illinois', 'postcode': '60630', 'country': 'United States of America', 'country_code': 'us'}",60630
41.96,-87.74,"{'house_number': '4332', 'road': 'North Kenneth Avenue', 'neighbourhood': 'Irving Park', 'city': 'Chicago', 'municipality': 'Jefferson Township', 'county': 'Cook County', 'state': 'Illinois', 'postcode': '60630', 'country': 'United States of America', 'country_code': 'us'}",60630
41.96,-87.77,"{'amenity': 'Community of Christ', 'house_number': '5701', 'road': 'West Montrose Avenue', 'neighbourhood': 'Portage Park', 'city': 'Chicago', 'municipality': 'Jefferson Township', 'county': 'Cook County', 'state': 'Illinois', 'postcode': '60630', 'country': 'United States of America', 'country_code': 'us'}",60630
41.97,-87.74,"{'house_number': '4453', 'road': 'West Ainslie Street', 'neighbourhood': 'Albany Park', 'city': 'Chicago', 'municipality': 'Jefferson Township', 'county': 'Cook County', 'state': 'Illinois', 'postcode': '60630', 'country': 'United States of America', 'country_code': 'us'}",60630
41.97,-87.77,"{'house_number': '5663', 'road': 'West Grover Street', 'neighbourhood': 'Jefferson Park', 'city': 'Chicago', 'municipality': 'Jefferson Township', 'county': 'Cook County', 'state': 'Illinois', 'postcode': '60630', 'country': 'United States of America', 'country_code': 'us'}",60630
41.97,-87.75,"{'house_number': '4852', 'road': 'West Ainslie Street', 'neighbourhood': 'Forest Glen', 'city': 'Chicago', 'municipality': 'Jefferson Township', 'county': 'Cook County', 'state': 'Illinois', 'postcode': '60630', 'country': 'United States of America', 'country_code': 'us'}",60630
41.97,-87.73,"{'house_number': '4067', 'road': 'West Ainslie Street', 'neighbourhood': 'Albany Park', 'city': 'Chicago', 'municipality': 'Jefferson Township', 'county': 'Cook County', 'state': 'Illinois', 'postcode': '60630', 'country': 'United States of America', 'country_code': 'us'}",60630
41.98,-87.77,"{'house_number': '5423', 'road': 'North Lovejoy Avenue', 'neighbourhood': 'Jefferson Park', 'city': 'Chicago', 'municipality': 'Jefferson Township', 'county': 'Cook County', 'state': 'Illinois', 'postcode': '60630', 'country': 'United States of America', 'country_code': 'us'}",60630
41.97,-87.78,"{'house_number': '4850', 'road': 'North McVicker Avenue', 'neighbourhood': 'Jefferson Park', 'city': 'Chicago', 'municipality': 'Jefferson Township', 'county': 'Cook County', 'state': 'Illinois', 'postcode': '60630', 'country': 'United States of America', 'country_code': 'us'}",60630
41.98,-87.78,"{'road': 'Kennedy Expressway', 'neighbourhood': 'Jefferson Park', 'city': 'Chicago', 'municipality': 'Jefferson Township', 'county': 'Cook County', 'state': 'Illinois', 'postcode': '60630', 'country': 'United States of America', 'country_code': 'us'}",60630
41.96,-87.78,"{'house_number': '6111', 'road': 'West Montrose Avenue', 'neighbourhood': 'Portage Park', 'city': 'Chicago', 'municipality': 'Jefferson Township', 'county': 'Cook County', 'state': 'Illinois', 'postcode': '60630', 'country': 'United States of America', 'country_code': 'us'}",60630
41.98,-87.75,"{'house_number': '4847', 'road': 'West Catalpa Avenue', 'neighbourhood': 'Forest Glen', 'city': 'Chicago', 'municipality': 'Jefferson Township', 'county': 'Cook County', 'state': 'Illinois', 'postcode': '60630', 'country': 'United States of America', 'country_code': 'us'}",60630
42,-87.81,"{'house_number': '6598', 'road': 'North Onarga Avenue', 'neighbourhood': 'Edison Park', 'city': 'Chicago', 'municipality': 'Jefferson Township', 'county': 'Cook County', 'state': 'Illinois', 'postcode': '60631', 'country': 'United States of America', 'country_code': 'us'}",60631
42,-87.82,"{'house_number': '6547', 'road': 'North Oshkosh Avenue', 'neighbourhood': 'Edison Park', 'city': 'Chicago', 'municipality': 'Jefferson Township', 'county': 'Cook County', 'state': 'Illinois', 'postcode': '60631', 'country': 'United States of America', 'country_code': 'us'}",60631
42,-87.8,"{'house_number': '6910', 'road': 'West Hayes Avenue', 'neighbourhood': 'Norwood Park', 'city': 'Chicago', 'municipality': 'Jefferson Township', 'county': 'Cook County', 'state': 'Illinois', 'postcode': '60631', 'country': 'United States of America', 'country_code': 'us'}",60631
42.01,-87.81,"{'house_number': '7317', 'road': 'West Fitch Avenue', 'retail': 'Harlem & Touhy Plaza', 'city': 'Chicago', 'municipality': 'Jefferson Township', 'county': 'Cook County', 'state': 'Illinois', 'postcode': '60631', 'country': 'United States of America', 'country_code': 'us'}",60631
41.99,-87.8,"{'house_number': '5950', 'road': 'North East Circle Avenue', 'neighbourhood': 'Norwood Park', 'city': 'Chicago', 'municipality': 'Jefferson Township', 'county': 'Cook County', 'state': 'Illinois', 'postcode': '60631', 'country': 'United States of America', 'country_code': 'us'}",60631
41.99,-87.82,"{'house_number': '6042', 'road': 'North Overhill Avenue', 'neighbourhood': 'Norwood Park', 'city': 'Chicago', 'municipality': 'Jefferson Township', 'county': 'Cook County', 'state': 'Illinois', 'postcode': '60631', 'country': 'United States of America', 'country_code': 'us'}",60631
41.99,-87.81,"{'house_number': '7273', 'road': 'West Peterson Avenue', 'neighbourhood': 'Norwood Park', 'city': 'Chicago', 'municipality': 'Jefferson Township', 'county': 'Cook County', 'state': 'Illinois', 'postcode': '60631', 'country': 'United States of America', 'country_code': 'us'}",60631
42.01,-87.82,"{'house_number': '7121', 'road': 'North Ozark Avenue', 'neighbourhood': 'Edison Park', 'town': 'Park Ridge', 'municipality': 'Jefferson Township', 'county': 'Cook County', 'state': 'Illinois', 'postcode': '60631', 'country': 'United States of America', 'country_code': 'us'}",60631
41.99,-87.79,"{'house_number': '6010', 'road': 'North Newburg Avenue', 'neighbourhood': 'Norwood Park', 'city': 'Chicago', 'municipality': 'Jefferson Township', 'county': 'Cook County', 'state': 'Illinois', 'postcode': '60631', 'country': 'United States of America', 'country_code': 'us'}",60631
41.82,-87.71,"{'road': 'North Street', 'neighbourhood': 'Brighton Park', 'city': 'Chicago', 'county': 'Cook County', 'state': 'Illinois', 'postcode': '60632', 'country': 'United States of America', 'country_code': 'us'}",60632
41.82,-87.7,"{'house_number': '3010', 'road': 'West 40th Place', 'neighbourhood': 'Brighton Park', 'city': 'Chicago', 'county': 'Cook County', 'state': 'Illinois', 'postcode': '60632', 'country': 'United States of America', 'country_code': 'us'}",60632
41.8,-87.69,"{'house_number': '5137', 'road': 'South Talman Avenue', 'neighbourhood': 'Gage Park', 'city': 'Chicago', 'county': 'Cook County', 'state': 'Illinois', 'postcode': '60632', 'country': 'United States of America', 'country_code': 'us'}",60632
41.83,-87.69,"{'house_number': '3504', 'road': 'South Rockwell Street', 'neighbourhood': 'Brighton Park', 'city': 'Chicago', 'county': 'Cook County', 'state': 'Illinois', 'postcode': '60632', 'country': 'United States of America', 'country_code': 'us'}",60632
41.82,-87.69,"{'house_number': '4034', 'road': 'South Rockwell Street', 'neighbourhood': 'Brighton Park', 'city': 'Chicago', 'county': 'Cook County', 'state': 'Illinois', 'postcode': '60632', 'country': 'United States of America', 'country_code': 'us'}",60632
41.82,-87.68,"{'house_number': '2159', 'road': 'West Pershing Road', 'neighbourhood': 'McKinley Park', 'city': 'Chicago', 'county': 'Cook County', 'state': 'Illinois', 'postcode': '60632', 'country': 'United States of America', 'country_code': 'us'}",60632
41.81,-87.7,"{'house_number': '3098', 'road': 'West 46th Street', 'neighbourhood': 'Brighton Park', 'city': 'Chicago', 'county': 'Cook County', 'state': 'Illinois', 'postcode': '60632', 'country': 'United States of America', 'country_code': 'us'}",60632
41.81,-87.72,"{'house_number': '4548', 'road': 'South Avers Avenue', 'neighbourhood': 'Archer Heights', 'city': 'Chicago', 'county': 'Cook County', 'state': 'Illinois', 'postcode': '60632', 'country': 'United States of America', 'country_code': 'us'}",60632
41.82,-87.72,"{'amenity': 'Trailer Parking', 'road': 'West 41st Street', 'neighbourhood': 'Archer Heights', 'city': 'Chicago', 'county': 'Cook County', 'state': 'Illinois', 'postcode': '60632', 'country': 'United States of America', 'country_code': 'us'}",60632
41.83,-87.73,"{'house_number': '4205', 'road': 'West 35th Street', 'neighbourhood': 'South Lawndale', 'city': 'Chicago', 'county': 'Cook County', 'state': 'Illinois', 'postcode': '60632', 'country': 'United States of America', 'country_code': 'us'}",60632
41.83,-87.67,"{'house_number': '1749-1751', 'road': 'West 35th Street', 'neighbourhood': 'McKinley Park', 'city': 'Chicago', 'county': 'Cook County', 'state': 'Illinois', 'postcode': '60632', 'country': 'United States of America', 'country_code': 'us'}",60632
41.83,-87.7,"{'house_number': '3000', 'road': 'West 36th Street', 'neighbourhood': 'Brighton Park', 'city': 'Chicago', 'county': 'Cook County', 'state': 'Illinois', 'postcode': '60632', 'country': 'United States of America', 'country_code': 'us'}",60632
41.8,-87.68,"{'amenity': 'Chicago Fire Department Engine Company 123', 'house_number': '2215', 'road': 'West 51st Street', 'neighbourhood': 'Gage Park', 'city': 'Chicago', 'county': 'Cook County', 'state': 'Illinois', 'postcode': '60632', 'country': 'United States of America', 'country_code': 'us'}",60632
41.81,-87.69,"{'house_number': '4601', 'road': 'South Talman Avenue', 'neighbourhood': 'Brighton Park', 'city': 'Chicago', 'county': 'Cook County', 'state': 'Illinois', 'postcode': '60632', 'country': 'United States of America', 'country_code': 'us'}",60632
41.8,-87.74,"{'house_number': '5109', 'road': 'South Kilpatrick Avenue', 'neighbourhood': 'Garfield Ridge', 'city': 'Chicago', 'county': 'Cook County', 'state': 'Illinois', 'postcode': '60632', 'country': 'United States of America', 'country_code': 'us'}",60632
41.8,-87.72,"{'house_number': '5120', 'road': 'South Avers Avenue', 'neighbourhood': 'West Elsdon', 'city': 'Chicago', 'county': 'Cook County', 'state': 'Illinois', 'postcode': '60632', 'country': 'United States of America', 'country_code': 'us'}",60632
41.8,-87.71,"{'house_number': '5122', 'road': 'South Trumbull Avenue', 'neighbourhood': 'Gage Park', 'city': 'Chicago', 'county': 'Cook County', 'state': 'Illinois', 'postcode': '60632', 'country': 'United States of America', 'country_code': 'us'}",60632
41.81,-87.74,"{'house_number': '4544', 'road': 'South Knox Avenue', 'neighbourhood': 'Garfield Ridge', 'city': 'Chicago', 'county': 'Cook County', 'state': 'Illinois', 'postcode': '60632', 'country': 'United States of America', 'country_code': 'us'}",60632
41.81,-87.71,"{'house_number': '4573', 'road': 'South Archer Avenue', 'neighbourhood': 'Brighton Park', 'city': 'Chicago', 'county': 'Cook County', 'state': 'Illinois', 'postcode': '60632', 'country': 'United States of America', 'country_code': 'us'}",60632
41.8,-87.7,"{'house_number': '5127', 'road': 'South Whipple Street', 'neighbourhood': 'Gage Park', 'city': 'Chicago', 'county': 'Cook County', 'state': 'Illinois', 'postcode': '60632', 'country': 'United States of America', 'country_code': 'us'}",60632
41.82,-87.73,"{'house_number': '4250', 'road': 'West 40th Street', 'neighbourhood': 'Archer Heights', 'city': 'Chicago', 'county': 'Cook County', 'state': 'Illinois', 'postcode': '60632', 'country': 'United States of America', 'country_code': 'us'}",60632
41.68,-87.54,"{'house_number': '11835', 'road': 'South Avenue O', 'neighbourhood': 'Hegewisch', 'city': 'Chicago', 'county': 'Cook County', 'state': 'Illinois', 'postcode': '60633', 'country': 'United States of America', 'country_code': 'us'}",60633
41.67,-87.58,"{'neighbourhood': 'South Deering', 'city': 'Chicago', 'county': 'Cook County', 'state': 'Illinois', 'postcode': '60633', 'country': 'United States of America', 'country_code': 'us'}",60633
41.66,-87.55,"{'house_number': '12932', 'road': 'South Carondolet Avenue', 'neighbourhood': 'Hegewisch', 'city': 'Chicago', 'county': 'Cook County', 'state': 'Illinois', 'postcode': '60633', 'country': 'United States of America', 'country_code': 'us'}",60633
41.67,-87.55,"{'house_number': '12260', 'road': 'South Carondolet Avenue', 'neighbourhood': 'South Deering', 'city': 'Chicago', 'county': 'Cook County', 'state': 'Illinois', 'postcode': '60633', 'country': 'United States of America', 'country_code': 'us'}",60633
41.7,-87.54,"{'house_number': '10731', 'road': 'South Avenue O', 'neighbourhood': 'East Side', 'city': 'Chicago', 'county': 'Cook County', 'state': 'Illinois', 'postcode': '60633', 'country': 'United States of America', 'country_code': 'us'}",60633
41.68,-87.6,"{'road': 'South Doty Avenue', 'neighbourhood': 'South Deering', 'city': 'Chicago', 'county': 'Cook County', 'state': 'Illinois', 'postcode': '60633', 'country': 'United States of America', 'country_code': 'us'}",60633
41.66,-87.59,"{'road': 'East 130th Street', 'neighbourhood': 'Riverdale', 'city': 'Chicago', 'county': 'Cook County', 'state': 'Illinois', 'postcode': '60633', 'country': 'United States of America', 'country_code': 'us'}",60633
41.65,-87.54,"{'house_number': '3429', 'road': 'East 135th Street', 'neighbourhood': 'Hegewisch', 'city': 'Chicago', 'county': 'Cook County', 'state': 'Illinois', 'postcode': '60633', 'country': 'United States of America', 'country_code': 'us'}",60633
41.68,-87.56,"{'natural': 'Indian Ridge Marsh', 'road': 'East 117th Street', 'neighbourhood': 'South Deering', 'city': 'Chicago', 'county': 'Cook County', 'state': 'Illinois', 'postcode': '60633', 'country': 'United States of America', 'country_code': 'us'}",60633
41.65,-87.55,"{'road': 'South Brainard Avenue', 'neighbourhood': 'Hegewisch', 'city': 'Chicago', 'county': 'Cook County', 'state': 'Illinois', 'postcode': '60633', 'country': 'United States of America', 'country_code': 'us'}",60633
41.65,-87.56,"{'house_number': '13500', 'road': 'South Hoxie Avenue', 'neighbourhood': 'Hegewisch', 'city': 'Chicago', 'county': 'Cook County', 'state': 'Illinois', 'postcode': '60633', 'country': 'United States of America', 'country_code': 'us'}",60633
41.65,-87.53,"{'house_number': '4059', 'road': 'East 134th Street', 'residential': 'Harbour Point Estates', 'city': 'Chicago', 'county': 'Cook County', 'state': 'Illinois', 'postcode': '60633', 'country': 'United States of America', 'country_code': 'us'}",60633
41.66,-87.54,"{'house_number': '12956', 'road': 'South Avenue O', 'neighbourhood': 'Hegewisch', 'city': 'Chicago', 'county': 'Cook County', 'state': 'Illinois', 'postcode': '60633', 'country': 'United States of America', 'country_code': 'us'}",60633
41.94,-87.79,"{'house_number': '3258', 'road': 'North Neenah Avenue', 'neighbourhood': 'Dunning', 'city': 'Chicago', 'municipality': 'Jefferson Township', 'county': 'Cook County', 'state': 'Illinois', 'postcode': '60634', 'country': 'United States of America', 'country_code': 'us'}",60634
41.94,-87.77,"{'house_number': '5725', 'road': 'West School Street', 'neighbourhood': 'Portage Park', 'city': 'Chicago', 'municipality': 'Jefferson Township', 'county': 'Cook County', 'state': 'Illinois', 'postcode': '60634', 'country': 'United States of America', 'country_code': 'us'}",60634
41.95,-87.76,"{'house_number': '5308', 'road': 'West Grace Street', 'neighbourhood': 'Portage Park', 'city': 'Chicago', 'municipality': 'Jefferson Township', 'county': 'Cook County', 'state': 'Illinois', 'postcode': '60634', 'country': 'United States of America', 'country_code': 'us'}",60634
41.96,-87.76,"{'house_number': '5300', 'road': 'West Pensacola Avenue', 'neighbourhood': 'Portage Park', 'city': 'Chicago', 'municipality': 'Jefferson Township', 'county': 'Cook County', 'state': 'Illinois', 'postcode': '60634', 'country': 'United States of America', 'country_code': 'us'}",60634
41.94,-87.81,"{'house_number': '3305', 'road': 'North Odell Avenue', 'neighbourhood': 'Dunning', 'city': 'Chicago', 'municipality': 'Jefferson Township', 'county': 'Cook County', 'state': 'Illinois', 'postcode': '60634', 'country': 'United States of America', 'country_code': 'us'}",60634
41.94,-87.76,"{'house_number': '5316', 'road': 'West Melrose Street', 'neighbourhood': 'Portage Park', 'city': 'Chicago', 'municipality': 'Jefferson Township', 'county': 'Cook County', 'state': 'Illinois', 'postcode': '60634', 'country': 'United States of America', 'country_code': 'us'}",60634
41.95,-87.8,"{'house_number': '3830', 'road': 'North Newland Avenue', 'neighbourhood': 'Dunning', 'city': 'Chicago', 'municipality': 'Jefferson Township', 'county': 'Cook County', 'state': 'Illinois', 'postcode': '60634', 'country': 'United States of America', 'country_code': 'us'}",60634
41.95,-87.75,"{'house_number': '4900', 'road': 'West Grace Street', 'neighbourhood': 'Portage Park', 'city': 'Chicago', 'municipality': 'Jefferson Township', 'county': 'Cook County', 'state': 'Illinois', 'postcode': '60634', 'country': 'United States of America', 'country_code': 'us'}",60634
41.95,-87.83,"{'house_number': '3851', 'road': 'North Paris Avenue', 'neighbourhood': 'Dunning', 'city': 'Chicago', 'municipality': 'Norwood Park Township', 'county': 'Cook County', 'state': 'Illinois', 'postcode': '60634', 'country': 'United States of America', 'country_code': 'us'}",60634
41.95,-87.78,"{'house_number': '6121', 'road': 'West Berenice Avenue', 'neighbourhood': 'Portage Park', 'city': 'Chicago', 'municipality': 'Jefferson Township', 'county': 'Cook County', 'state': 'Illinois', 'postcode': '60634', 'country': 'United States of America', 'country_code': 'us'}",60634
41.95,-87.77,"{'house_number': '5713', 'road': 'West Berenice Avenue', 'neighbourhood': 'Portage Park', 'city': 'Chicago', 'municipality': 'Jefferson Township', 'county': 'Cook County', 'state': 'Illinois', 'postcode': '60634', 'country': 'United States of America', 'country_code': 'us'}",60634
41.93,-87.78,"{'house_number': '2726', 'road': 'North Moody Avenue', 'police_beat': 'Beat 2512', 'city': 'Chicago', 'municipality': 'Jefferson Township', 'county': 'Cook County', 'state': 'Illinois', 'postcode': '60634', 'country': 'United States of America', 'country_code': 'us'}",60634
41.95,-87.81,"{'house_number': '3840', 'road': 'North Octavia Avenue', 'neighbourhood': 'Dunning', 'town': 'Norridge', 'municipality': 'Norwood Park Township', 'county': 'Cook County', 'state': 'Illinois', 'postcode': '60634', 'country': 'United States of America', 'country_code': 'us'}",60634
41.94,-87.8,"{'house_number': '6949', 'road': 'West School Street', 'neighbourhood': 'Dunning', 'city': 'Chicago', 'municipality': 'Jefferson Township', 'county': 'Cook County', 'state': 'Illinois', 'postcode': '60634', 'country': 'United States of America', 'country_code': 'us'}",60634
41.96,-87.79,"{'amenity': 'Wilbur Wright College', 'house_number': '4300', 'road': 'North Narragansett Avenue', 'neighbourhood': 'Dunning', 'city': 'Chicago', 'municipality': 'Jefferson Township', 'county': 'Cook County', 'state': 'Illinois', 'postcode': '60634', 'country': 'United States of America', 'country_code': 'us'}",60634
41.92,-87.77,"{'house_number': '2168', 'road': 'North Mango Avenue', 'police_beat': 'Beat 2515', 'city': 'Chicago', 'municipality': 'Jefferson Township', 'county': 'Cook County', 'state': 'Illinois', 'postcode': '60634', 'country': 'United States of America', 'country_code': 'us'}",60634
41.94,-87.83,"{'house_number': '3319', 'road': 'North Paris Avenue', 'neighbourhood': 'Dunning', 'city': 'Chicago', 'municipality': 'Norwood Park Township', 'county': 'Cook County', 'state': 'Illinois', 'postcode': '60634', 'country': 'United States of America', 'country_code': 'us'}",60634
41.95,-87.79,"{'house_number': '6519', 'road': 'West Byron Street', 'neighbourhood': 'Dunning', 'city': 'Chicago', 'municipality': 'Jefferson Township', 'county': 'Cook County', 'state': 'Illinois', 'postcode': '60634', 'country': 'United States of America', 'country_code': 'us'}",60634
41.95,-87.82,"{'house_number': '3866', 'road': 'North Ottawa Avenue', 'neighbourhood': 'Dunning', 'city': 'Chicago', 'municipality': 'Jefferson Township', 'county': 'Cook County', 'state': 'Illinois', 'postcode': '60634', 'country': 'United States of America', 'country_code': 'us'}",60634
41.94,-87.78,"{'house_number': '6131', 'road': 'West School Street', 'neighbourhood': 'Dunning', 'city': 'Chicago', 'municipality': 'Jefferson Township', 'county': 'Cook County', 'state': 'Illinois', 'postcode': '60634', 'country': 'United States of America', 'country_code': 'us'}",60634
41.93,-87.77,"{'house_number': '2718', 'road': 'North Mango Avenue', 'police_beat': 'Beat 2515', 'city': 'Chicago', 'municipality': 'Jefferson Township', 'county': 'Cook County', 'state': 'Illinois', 'postcode': '60634', 'country': 'United States of America', 'country_code': 'us'}",60634
41.94,-87.82,"{'house_number': '3315', 'road': 'North Ozark Avenue', 'neighbourhood': 'Dunning', 'town': 'Elmwood Park', 'municipality': 'Jefferson Township', 'county': 'Cook County', 'state': 'Illinois', 'postcode': '60634', 'country': 'United States of America', 'country_code': 'us'}",60634
41.78,-87.65,"{'house_number': '1000-1008', 'road': 'West 63rd Street', 'neighbourhood': 'Englewood', 'city': 'Chicago', 'county': 'Cook County', 'state': 'Illinois', 'postcode': '60636', 'country': 'United States of America', 'country_code': 'us'}",60636
41.76,-87.67,"{'house_number': '7340', 'road': 'South Honore Street', 'neighbourhood': 'West Englewood', 'city': 'Chicago', 'county': 'Cook County', 'state': 'Illinois', 'postcode': '60636', 'country': 'United States of America', 'country_code': 'us'}",60636
41.78,-87.67,"{'house_number': '6239', 'road': 'South Honore Street', 'neighbourhood': 'West Englewood', 'city': 'Chicago', 'county': 'Cook County', 'state': 'Illinois', 'postcode': '60636', 'country': 'United States of America', 'country_code': 'us'}",60636
41.76,-87.66,"{'house_number': '1429', 'road': 'West 73rd Place', 'neighbourhood': 'West Englewood', 'city': 'Chicago', 'county': 'Cook County', 'state': 'Illinois', 'postcode': '60636', 'country': 'United States of America', 'country_code': 'us'}",60636
41.77,-87.66,"{'house_number': '6811', 'road': 'South Bishop Street', 'neighbourhood': 'West Englewood', 'city': 'Chicago', 'county': 'Cook County', 'state': 'Illinois', 'postcode': '60636', 'country': 'United States of America', 'country_code': 'us'}",60636
41.78,-87.63,"{'amenity': 'Wentworth Ave & 63rd St', 'road': 'West 63rd Street', 'city': 'Chicago', 'county': 'Cook County', 'state': 'Illinois', 'postcode': '60636', 'country': 'United States of America', 'country_code': 'us'}",60636
41.78,-87.68,"{'house_number': '2272', 'road': 'West 63rd Street', 'neighbourhood': 'Chicago Lawn', 'city': 'Chicago', 'county': 'Cook County', 'state': 'Illinois', 'postcode': '60636', 'country': 'United States of America', 'country_code': 'us'}",60636
41.77,-87.67,"{'house_number': '6809', 'road': 'South Honore Street', 'neighbourhood': 'West Englewood', 'city': 'Chicago', 'county': 'Cook County', 'state': 'Illinois', 'postcode': '60636', 'country': 'United States of America', 'country_code': 'us'}",60636
41.79,-87.68,"{'house_number': '5641', 'road': 'South Oakley Avenue', 'neighbourhood': 'Gage Park', 'city': 'Chicago', 'county': 'Cook County', 'state': 'Illinois', 'postcode': '60636', 'country': 'United States of America', 'country_code': 'us'}",60636
41.79,-87.67,"{'house_number': '5711', 'road': 'South Honore Street', 'neighbourhood': 'West Englewood', 'city': 'Chicago', 'county': 'Cook County', 'state': 'Illinois', 'postcode': '60636', 'country': 'United States of America', 'country_code': 'us'}",60636
41.77,-87.68,"{'house_number': '6802', 'road': 'South Bell Avenue', 'neighbourhood': 'Chicago Lawn', 'city': 'Chicago', 'county': 'Cook County', 'state': 'Illinois', 'postcode': '60636', 'country': 'United States of America', 'country_code': 'us'}",60636
41.81,-87.67,"{'house_number': '4610', 'road': 'South Wood Street', 'neighbourhood': 'West Englewood', 'city': 'Chicago', 'county': 'Cook County', 'state': 'Illinois', 'postcode': '60636', 'country': 'United States of America', 'country_code': 'us'}",60636
41.79,-87.66,"{'house_number': '5708', 'road': 'South Loomis Boulevard', 'neighbourhood': 'New City', 'city': 'Chicago', 'county': 'Cook County', 'state': 'Illinois', 'postcode': '60636', 'country': 'United States of America', 'country_code': 'us'}",60636
41.76,-87.68,"{'house_number': '7335', 'road': 'South Oakley Avenue', 'neighbourhood': 'Chicago Lawn', 'city': 'Chicago', 'county': 'Cook County', 'state': 'Illinois', 'postcode': '60636', 'country': 'United States of America', 'country_code': 'us'}",60636
41.8,-87.66,"{'house_number': '5142', 'road': 'South Loomis Boulevard', 'neighbourhood': 'New City', 'city': 'Chicago', 'county': 'Cook County', 'state': 'Illinois', 'postcode': '60636', 'country': 'United States of America', 'country_code': 'us'}",60636
41.8,-87.67,"{'house_number': '5144', 'road': 'South Wood Street', 'neighbourhood': 'West Englewood', 'city': 'Chicago', 'county': 'Cook County', 'state': 'Illinois', 'postcode': '60636', 'country': 'United States of America', 'country_code': 'us'}",60636
41.78,-87.66,"{'amenity': 'Chicago Police Department 7th District', 'house_number': '1428', 'road': 'West 63rd Street', 'neighbourhood': 'West Englewood', 'city': 'Chicago', 'county': 'Cook County', 'state': 'Illinois', 'postcode': '60636', 'country': 'United States of America', 'country_code': 'us'}",60636
41.82,-87.62,"{'house_number': '4108', 'road': 'South Prairie Avenue', 'neighbourhood': 'Washington Park', 'city': 'Chicago', 'county': 'Cook County', 'state': 'Illinois', 'postcode': '60637', 'country': 'United States of America', 'country_code': 'us'}",60637
41.78,-87.61,"{'house_number': '6316', 'road': 'South Champlain Avenue', 'neighbourhood': 'Woodlawn', 'city': 'Chicago', 'county': 'Cook County', 'state': 'Illinois', 'postcode': '60637', 'country': 'United States of America', 'country_code': 'us'}",60637
41.78,-87.6,"{'house_number': '6317-6319', 'road': 'South Ellis Avenue', 'neighbourhood': 'Woodlawn', 'city': 'Chicago', 'county': 'Cook County', 'state': 'Illinois', 'postcode': '60637', 'country': 'United States of America', 'country_code': 'us'}",60637
41.79,-87.58,"{'road': 'East Science Drive', 'neighbourhood': 'Hyde Park', 'city': 'Chicago', 'county': 'Cook County', 'state': 'Illinois', 'postcode': '60637', 'country': 'United States of America', 'country_code': 'us'}",60637
41.79,-87.6,"{'amenity': 'The University of Chicago', 'house_number': '5801', 'road': 'South Ellis Avenue', 'neighbourhood': 'Hyde Park', 'city': 'Chicago', 'county': 'Cook County', 'state': 'Illinois', 'postcode': '60637', 'country': 'United States of America', 'country_code': 'us'}",60637
41.79,-87.61,"{'natural': 'Mere', 'road': 'South Russell Drive', 'neighbourhood': 'Washington Park', 'city': 'Chicago', 'county': 'Cook County', 'state': 'Illinois', 'postcode': '60637', 'country': 'United States of America', 'country_code': 'us'}",60637
41.8,-87.62,"{'house_number': '5200-5202', 'road': 'South Prairie Avenue', 'neighbourhood': 'Washington Park', 'city': 'Chicago', 'county': 'Cook County', 'state': 'Illinois', 'postcode': '60637', 'country': 'United States of America', 'country_code': 'us'}",60637
41.79,-87.59,"{'house_number': '5747', 'road': 'South Blackstone Avenue', 'neighbourhood': 'Hyde Park', 'city': 'Chicago', 'county': 'Cook County', 'state': 'Illinois', 'postcode': '60637', 'country': 'United States of America', 'country_code': 'us'}",60637
41.81,-87.62,"{'house_number': '4636', 'road': 'South Prairie Avenue', 'neighbourhood': 'Washington Park', 'city': 'Chicago', 'county': 'Cook County', 'state': 'Illinois', 'postcode': '60637', 'country': 'United States of America', 'country_code': 'us'}",60637
41.78,-87.59,"{'railway': '63rd Street', 'road': 'East 63rd Street', 'neighbourhood': 'Woodlawn', 'city': 'Chicago', 'county': 'Cook County', 'state': 'Illinois', 'postcode': '60637', 'country': 'United States of America', 'country_code': 'us'}",60637
41.78,-87.62,"{'house_number': '201', 'road': 'East 63rd Street', 'neighbourhood': 'Washington Park', 'city': 'Chicago', 'county': 'Cook County', 'state': 'Illinois', 'postcode': '60637', 'country': 'United States of America', 'country_code': 'us'}",60637
41.81,-87.66,"{'house_number': '1400-1422', 'road': 'West 47th Street', 'neighbourhood': 'New City', 'city': 'Chicago', 'county': 'Cook County', 'state': 'Illinois', 'postcode': '60638', 'country': 'United States of America', 'country_code': 'us'}",60638
41.78,-87.77,"{'house_number': '6153', 'road': 'South Mason Avenue', 'neighbourhood': 'Clearing', 'city': 'Chicago', 'county': 'Cook County', 'state': 'Illinois', 'postcode': '60638', 'country': 'United States of America', 'country_code': 'us'}",60638
41.79,-87.74,"{'amenity': 'Midway Airport Parking Garage', 'house_number': '5701', 'road': 'South Cicero Avenue', 'neighbourhood': 'Garfield Ridge', 'city': 'Chicago', 'county': 'Cook County', 'state': 'Illinois', 'postcode': '60638', 'country': 'United States of America', 'country_code': 'us'}",60638
41.8,-87.76,"{'amenity': 'Mark Twain Elementary School', 'road': 'South Linder Avenue', 'neighbourhood': 'Garfield Ridge', 'city': 'Chicago', 'municipality': 'Stickney Township', 'county': 'Cook County', 'state': 'Illinois', 'postcode': '60638', 'country': 'United States of America', 'country_code': 'us'}",60638
41.81,-87.68,"{'house_number': '2240', 'road': 'West 47th Street', 'neighbourhood': 'New City', 'city': 'Chicago', 'county': 'Cook County', 'state': 'Illinois', 'postcode': '60638', 'country': 'United States of America', 'country_code': 'us'}",60638
41.8,-87.75,"{'house_number': '5105', 'road': 'South Leclaire Avenue', 'neighbourhood': 'Garfield Ridge', 'city': 'Chicago', 'county': 'Cook County', 'state': 'Illinois', 'postcode': '60638', 'country': 'United States of America', 'country_code': 'us'}",60638
41.8,-87.77,"{'house_number': '5900', 'road': 'West 51st Street', 'neighbourhood': 'Glenn', 'municipality': 'Stickney Township', 'county': 'Cook County', 'state': 'Illinois', 'postcode': '60638', 'country': 'United States of America', 'country_code': 'us'}",60638
41.81,-87.65,"{'house_number': '900', 'road': 'West 47th Street', 'neighbourhood': 'New City', 'city': 'Chicago', 'county': 'Cook County', 'state': 'Illinois', 'postcode': '60638', 'country': 'United States of America', 'country_code': 'us'}",60638
41.79,-87.78,"{'house_number': '6325', 'road': 'West 56th Street', 'neighbourhood': 'Garfield Ridge', 'city': 'Chicago', 'county': 'Cook County', 'state': 'Illinois', 'postcode': '60638', 'country': 'United States of America', 'country_code': 'us'}",60638
41.78,-87.79,"{'house_number': '6140', 'road': 'South Rutherford Avenue', 'neighbourhood': 'Clearing', 'city': 'Chicago', 'county': 'Cook County', 'state': 'Illinois', 'postcode': '60638', 'country': 'United States of America', 'country_code': 'us'}",60638
41.79,-87.79,"{'house_number': '5609', 'road': 'South Rutherford Avenue', 'neighbourhood': 'Clearing', 'city': 'Chicago', 'county': 'Cook County', 'state': 'Illinois', 'postcode': '60638', 'country': 'United States of America', 'country_code': 'us'}",60638
41.79,-87.77,"{'house_number': '5620', 'road': 'South Mayfield Avenue', 'neighbourhood': 'Garfield Ridge', 'city': 'Chicago', 'county': 'Cook County', 'state': 'Illinois', 'postcode': '60638', 'country': 'United States of America', 'country_code': 'us'}",60638
41.78,-87.75,"{'aeroway': 'Chicago Midway International Airport', 'house_number': '5700', 'road': 'South Cicero Avenue', 'neighbourhood': 'Garfield Ridge', 'city': 'Chicago', 'county': 'Cook County', 'state': 'Illinois', 'postcode': '60638', 'country': 'United States of America', 'country_code': 'us'}",60638
41.81,-87.75,"{'house_number': '4543', 'road': 'South Leclaire Avenue', 'neighbourhood': 'Garfield Ridge', 'city': 'Chicago', 'county': 'Cook County', 'state': 'Illinois', 'postcode': '60638', 'country': 'United States of America', 'country_code': 'us'}",60638
41.77,-87.79,"{'road': 'West 66th Place', 'village': 'Bedford Park', 'municipality': 'Stickney Township', 'county': 'Cook County', 'state': 'Illinois', 'postcode': '60638', 'country': 'United States of America', 'country_code': 'us'}",60638
41.8,-87.78,"{'house_number': '6338', 'road': 'West 51st Street', 'neighbourhood': 'Garfield Ridge', 'city': 'Chicago', 'municipality': 'Stickney Township', 'county': 'Cook County', 'state': 'Illinois', 'postcode': '60638', 'country': 'United States of America', 'country_code': 'us'}",60638
41.79,-87.8,"{'house_number': '5605', 'road': 'South Neva Avenue', 'neighbourhood': 'Garfield Ridge', 'city': 'Chicago', 'county': 'Cook County', 'state': 'Illinois', 'postcode': '60638', 'country': 'United States of America', 'country_code': 'us'}",60638
41.78,-87.78,"{'house_number': '6138', 'road': 'South Mulligan Avenue', 'neighbourhood': 'Clearing', 'city': 'Chicago', 'county': 'Cook County', 'state': 'Illinois', 'postcode': '60638', 'country': 'United States of America', 'country_code': 'us'}",60638
41.78,-87.8,"{'house_number': '6135-6155', 'road': 'South Harlem Avenue', 'neighbourhood': 'Clearing', 'town': 'Summit', 'municipality': 'Lyons Township', 'county': 'Cook County', 'state': 'Illinois', 'postcode': '60638', 'country': 'United States of America', 'country_code': 'us'}",60638
41.77,-87.78,"{'road': 'South Narragansett Avenue', 'village': 'Bedford Park', 'municipality': 'Stickney Township', 'county': 'Cook County', 'state': 'Illinois', 'postcode': '60638', 'country': 'United States of America', 'country_code': 'us'}",60638
41.79,-87.75,"{'aeroway': 'Chicago Midway International Airport', 'house_number': '5700', 'road': 'South Cicero Avenue', 'neighbourhood': 'Garfield Ridge', 'city': 'Chicago', 'county': 'Cook County', 'state': 'Illinois', 'postcode': '60638', 'country': 'United States of America', 'country_code': 'us'}",60638
41.77,-87.8,"{'road': 'South Old Harlem Avenue', 'village': 'Bedford Park', 'municipality': 'Stickney Township', 'county': 'Cook County', 'state': 'Illinois', 'postcode': '60638', 'country': 'United States of America', 'country_code': 'us'}",60638
41.77,-87.77,"{'road': 'West 69th Street', 'village': 'Bedford Park', 'municipality': 'Stickney Township', 'county': 'Cook County', 'state': 'Illinois', 'postcode': '60638', 'country': 'United States of America', 'country_code': 'us'}",60638
41.93,-87.73,"{'house_number': '4111', 'road': 'West Parker Avenue', 'neighbourhood': 'Logan Square', 'city': 'Chicago', 'municipality': 'Jefferson Township', 'county': 'Cook County', 'state': 'Illinois', 'postcode': '60639', 'country': 'United States of America', 'country_code': 'us'}",60639
41.93,-87.75,"{'house_number': '4924', 'road': 'West Schubert Avenue', 'police_beat': 'Beat 2521', 'city': 'Chicago', 'municipality': 'Jefferson Township', 'county': 'Cook County', 'state': 'Illinois', 'postcode': '60639', 'country': 'United States of America', 'country_code': 'us'}",60639
41.92,-87.73,"{'house_number': '2133', 'road': 'North Kedvale Avenue', 'police_beat': 'Beat 2534', 'city': 'Chicago', 'municipality': 'Jefferson Township', 'county': 'Cook County', 'state': 'Illinois', 'postcode': '60639', 'country': 'United States of America', 'country_code': 'us'}",60639
41.92,-87.75,"{'house_number': '2142', 'road': 'North Laporte Avenue', 'police_beat': 'Beat 2522', 'city': 'Chicago', 'municipality': 'Jefferson Township', 'county': 'Cook County', 'state': 'Illinois', 'postcode': '60639', 'country': 'United States of America', 'country_code': 'us'}",60639
41.91,-87.73,"{'house_number': '1615', 'road': 'North Kedvale Avenue', 'police_beat': 'Beat 2534', 'city': 'Chicago', 'municipality': 'Jefferson Township', 'county': 'Cook County', 'state': 'Illinois', 'postcode': '60639', 'country': 'United States of America', 'country_code': 'us'}",60639
41.91,-87.77,"{'house_number': '1619', 'road': 'North Menard Avenue', 'police_beat': 'Beat 2531', 'city': 'Chicago', 'municipality': 'Jefferson Township', 'county': 'Cook County', 'state': 'Illinois', 'postcode': '60639', 'country': 'United States of America', 'country_code': 'us'}",60639
41.92,-87.76,"{'house_number': '2148', 'road': 'North Lorel Avenue', 'neighbourhood': 'Belmont Cragin', 'city': 'Chicago', 'municipality': 'Jefferson Township', 'county': 'Cook County', 'state': 'Illinois', 'postcode': '60639', 'country': 'United States of America', 'country_code': 'us'}",60639
41.91,-87.78,"{'house_number': '1625', 'road': 'North Melvina Avenue', 'police_beat': 'Beat 2513', 'city': 'Chicago', 'municipality': 'Jefferson Township', 'county': 'Cook County', 'state': 'Illinois', 'postcode': '60639', 'country': 'United States of America', 'country_code': 'us'}",60639
41.93,-87.74,"{'house_number': '4516', 'road': 'West Schubert Avenue', 'police_beat': 'Beat 2521', 'city': 'Chicago', 'municipality': 'Jefferson Township', 'county': 'Cook County', 'state': 'Illinois', 'postcode': '60639', 'country': 'United States of America', 'country_code': 'us'}",60639
41.92,-87.74,"{'house_number': '4545', 'road': 'West Palmer Street', 'police_beat': 'Beat 2522', 'city': 'Chicago', 'municipality': 'Jefferson Township', 'county': 'Cook County', 'state': 'Illinois', 'postcode': '60639', 'country': 'United States of America', 'country_code': 'us'}",60639
41.93,-87.76,"{'house_number': '2701-2727', 'road': 'North Long Avenue', 'neighbourhood': 'Belmont Cragin', 'city': 'Chicago', 'municipality': 'Jefferson Township', 'county': 'Cook County', 'state': 'Illinois', 'postcode': '60639', 'country': 'United States of America', 'country_code': 'us'}",60639
41.92,-87.78,"{'house_number': '2173', 'road': 'North Melvina Avenue', 'police_beat': 'Beat 2512', 'city': 'Chicago', 'municipality': 'Jefferson Township', 'county': 'Cook County', 'state': 'Illinois', 'postcode': '60639', 'country': 'United States of America', 'country_code': 'us'}",60639
41.98,-87.66,"{'house_number': '1200', 'road': 'West Balmoral Avenue', 'neighbourhood': 'Edgewater', 'suburb': 'Edgewater', 'city': 'Chicago', 'county': 'Cook County', 'state': 'Illinois', 'postcode': '60640', 'country': 'United States of America', 'country_code': 'us'}",60640
41.97,-87.65,"{'house_number': '815-821', 'road': 'West Gunnison Street', 'neighbourhood': 'Asia on Argyle', 'suburb': 'Uptown', 'city': 'Chicago', 'county': 'Cook County', 'state': 'Illinois', 'postcode': '60640', 'country': 'United States of America', 'country_code': 'us'}",60640
41.97,-87.67,"{'house_number': '4838-4842', 'road': 'North Ashland Avenue', 'neighbourhood': 'Winnemac', 'suburb': 'Uptown', 'city': 'Chicago', 'county': 'Cook County', 'state': 'Illinois', 'postcode': '60640', 'country': 'United States of America', 'country_code': 'us'}",60640
41.97,-87.66,"{'house_number': '4830-4840', 'road': 'North Broadway', 'neighbourhood': 'Asia on Argyle', 'suburb': 'Uptown', 'city': 'Chicago', 'county': 'Cook County', 'state': 'Illinois', 'postcode': '60640', 'country': 'United States of America', 'country_code': 'us'}",60640
41.98,-87.67,"{'house_number': '5400', 'road': 'North Ashland Avenue', 'neighbourhood': 'Edgewater', 'suburb': 'Edgewater', 'city': 'Chicago', 'county': 'Cook County', 'state': 'Illinois', 'postcode': '60640', 'country': 'United States of America', 'country_code': 'us'}",60640
41.94,-87.75,"{'house_number': '4912', 'road': 'West Melrose Street', 'neighbourhood': 'Portage Park', 'city': 'Chicago', 'municipality': 'Jefferson Township', 'county': 'Cook County', 'state': 'Illinois', 'postcode': '60641', 'country': 'United States of America', 'country_code': 'us'}",60641
41.95,-87.73,"{'amenity': 'Disney II Magnet School', 'road': 'West Grace Street', 'neighbourhood': 'Irving Park', 'city': 'Chicago', 'municipality': 'Jefferson Township', 'county': 'Cook County', 'state': 'Illinois', 'postcode': '60641', 'country': 'United States of America', 'country_code': 'us'}",60641
41.96,-87.73,"{'house_number': '4330-4334', 'road': 'North Keystone Avenue', 'neighbourhood': 'Irving Park', 'city': 'Chicago', 'municipality': 'Jefferson Township', 'county': 'Cook County', 'state': 'Illinois', 'postcode': '60641', 'country': 'United States of America', 'country_code': 'us'}",60641
41.94,-87.73,"{'amenity': 'Kindred Chicago Central Hospital', 'house_number': '4058', 'road': 'West Melrose Street', 'neighbourhood': 'Irving Park', 'city': 'Chicago', 'municipality': 'Jefferson Township', 'county': 'Cook County', 'state': 'Illinois', 'postcode': '60641', 'country': 'United States of America', 'country_code': 'us'}",60641
41.96,-87.75,"{'house_number': '4344', 'road': 'North Lamon Avenue', 'neighbourhood': 'Portage Park', 'city': 'Chicago', 'municipality': 'Jefferson Township', 'county': 'Cook County', 'state': 'Illinois', 'postcode': '60641', 'country': 'United States of America', 'country_code': 'us'}",60641
41.94,-87.74,"{'house_number': '3230-3248', 'road': 'North Kilbourn Avenue', 'neighbourhood': 'Irving Park', 'city': 'Chicago', 'municipality': 'Jefferson Township', 'county': 'Cook County', 'state': 'Illinois', 'postcode': '60641', 'country': 'United States of America', 'country_code': 'us'}",60641
41.95,-87.74,"{'house_number': '4455', 'road': 'West Grace Street', 'neighbourhood': 'Irving Park', 'city': 'Chicago', 'municipality': 'Jefferson Township', 'county': 'Cook County', 'state': 'Illinois', 'postcode': '60641', 'country': 'United States of America', 'country_code': 'us'}",60641
41.89,-87.66,"{'road': 'North Ogden Avenue', 'neighbourhood': 'West Town', 'city': 'Chicago', 'county': 'Cook County', 'state': 'Illinois', 'postcode': '60642', 'country': 'United States of America', 'country_code': 'us'}",60642
41.9,-87.66,"{'road': 'Kennedy Expressway', 'neighbourhood': 'West Town', 'city': 'Chicago', 'county': 'Cook County', 'state': 'Illinois', 'postcode': '60642', 'country': 'United States of America', 'country_code': 'us'}",60642
41.89,-87.65,"{'house_number': '914', 'road': 'West Hubbard Street', 'neighbourhood': 'West Town', 'city': 'Chicago', 'county': 'Cook County', 'state': 'Illinois', 'postcode': '60642', 'country': 'United States of America', 'country_code': 'us'}",60642
41.91,-87.66,"{'house_number': '1285', 'road': 'West North Avenue', 'neighbourhood': 'West Town', 'suburb': 'Lincoln Park', 'city': 'Chicago', 'county': 'Cook County', 'state': 'Illinois', 'postcode': '60642', 'country': 'United States of America', 'country_code': 'us'}",60642
41.68,-87.64,"{'house_number': '708', 'road': 'West 118th Street', 'neighbourhood': 'Placerdale', 'city': 'Chicago', 'county': 'Cook County', 'state': 'Illinois', 'postcode': '60643', 'country': 'United States of America', 'country_code': 'us'}",60643
41.72,-87.65,"{'house_number': '9530-9540', 'road': 'South Genoa Avenue', 'neighbourhood': 'Washington Heights', 'city': 'Chicago', 'county': 'Cook County', 'state': 'Illinois', 'postcode': '60643', 'country': 'United States of America', 'country_code': 'us'}",60643
41.68,-87.63,"{'house_number': '300', 'road': 'West 118th Street', 'neighbourhood': 'Gano', 'city': 'Chicago', 'county': 'Cook County', 'state': 'Illinois', 'postcode': '60643', 'country': 'United States of America', 'country_code': 'us'}",60643
41.69,-87.68,"{'house_number': '2336', 'road': 'West 112th Street', 'neighbourhood': 'Morgan Park', 'city': 'Chicago', 'county': 'Cook County', 'state': 'Illinois', 'postcode': '60643', 'country': 'United States of America', 'country_code': 'us'}",60643
41.72,-87.67,"{'house_number': '9535', 'road': 'South Winchester Avenue', 'neighbourhood': 'Beverly', 'city': 'Chicago', 'county': 'Cook County', 'state': 'Illinois', 'postcode': '60643', 'country': 'United States of America', 'country_code': 'us'}",60643
41.7,-87.66,"{'house_number': '10639', 'road': 'South Church Street', 'neighbourhood': 'Beverly', 'city': 'Chicago', 'county': 'Cook County', 'state': 'Illinois', 'postcode': '60643', 'country': 'United States of America', 'country_code': 'us'}",60643
41.7,-87.65,"{'house_number': '10645', 'road': 'South May Street', 'neighbourhood': 'Washington Heights', 'city': 'Chicago', 'county': 'Cook County', 'state': 'Illinois', 'postcode': '60643', 'country': 'United States of America', 'country_code': 'us'}",60643
41.72,-87.68,"{'house_number': '9530', 'road': 'South Oakley Avenue', 'neighbourhood': 'Beverly', 'city': 'Chicago', 'county': 'Cook County', 'state': 'Illinois', 'postcode': '60643', 'country': 'United States of America', 'country_code': 'us'}",60643
41.71,-87.66,"{'house_number': '10041', 'road': 'South Charles Street', 'neighbourhood': 'Beverly', 'city': 'Chicago', 'county': 'Cook County', 'state': 'Illinois', 'postcode': '60643', 'country': 'United States of America', 'country_code': 'us'}",60643
41.68,-87.67,"{'house_number': '11755', 'road': 'South Vincennes Avenue', 'neighbourhood': 'Morgan Park', 'city': 'Chicago', 'county': 'Cook County', 'state': 'Illinois', 'postcode': '60643', 'country': 'United States of America', 'country_code': 'us'}",60643
41.71,-87.68,"{'house_number': '2315', 'road': 'West 101st Street', 'neighbourhood': 'Beverly', 'city': 'Chicago', 'county': 'Cook County', 'state': 'Illinois', 'postcode': '60643', 'country': 'United States of America', 'country_code': 'us'}",60643
41.69,-87.66,"{'house_number': '11209', 'road': 'South Laflin Street', 'neighbourhood': 'Morgan Park', 'city': 'Chicago', 'county': 'Cook County', 'state': 'Illinois', 'postcode': '60643', 'country': 'United States of America', 'country_code': 'us'}",60643
41.68,-87.66,"{'house_number': '11739', 'road': 'South Justine Street', 'city': 'Chicago', 'county': 'Cook County', 'state': 'Illinois', 'postcode': '60643', 'country': 'United States of America', 'country_code': 'us'}",60643
41.73,-87.68,"{'house_number': '9000', 'road': 'South Oakley Avenue', 'neighbourhood': 'Beverly', 'city': 'Chicago', 'county': 'Cook County', 'state': 'Illinois', 'postcode': '60643', 'country': 'United States of America', 'country_code': 'us'}",60643
41.71,-87.65,"{'house_number': '10113', 'road': 'South Aberdeen Street', 'neighbourhood': 'Washington Heights', 'city': 'Chicago', 'county': 'Cook County', 'state': 'Illinois', 'postcode': '60643', 'country': 'United States of America', 'country_code': 'us'}",60643
41.72,-87.66,"{'house_number': '9541', 'road': 'South Winston Avenue', 'neighbourhood': 'Washington Heights', 'city': 'Chicago', 'county': 'Cook County', 'state': 'Illinois', 'postcode': '60643', 'country': 'United States of America', 'country_code': 'us'}",60643
41.7,-87.68,"{'house_number': '10631', 'road': 'South Claremont Avenue', 'neighbourhood': 'Beverly', 'city': 'Chicago', 'county': 'Cook County', 'state': 'Illinois', 'postcode': '60643', 'country': 'United States of America', 'country_code': 'us'}",60643
41.73,-87.67,"{'road': 'Major Taylor Trail', 'neighbourhood': 'Beverly', 'city': 'Chicago', 'county': 'Cook County', 'state': 'Illinois', 'postcode': '60643', 'country': 'United States of America', 'country_code': 'us'}",60643
41.7,-87.67,"{'house_number': '10630', 'road': 'South Walden Parkway', 'neighbourhood': 'Beverly', 'city': 'Chicago', 'county': 'Cook County', 'state': 'Illinois', 'postcode': '60643', 'country': 'United States of America', 'country_code': 'us'}",60643
41.68,-87.68,"{'amenity': 'Saint Walter School', 'road': 'South Western Avenue', 'neighbourhood': 'Morgan Park', 'city': 'Chicago', 'county': 'Cook County', 'state': 'Illinois', 'postcode': '60643', 'country': 'United States of America', 'country_code': 'us'}",60643
41.69,-87.65,"{'house_number': '1109', 'road': 'West 112th Street', 'neighbourhood': 'Morgan Park', 'city': 'Chicago', 'county': 'Cook County', 'state': 'Illinois', 'postcode': '60643', 'country': 'United States of America', 'country_code': 'us'}",60643
41.87,-87.75,"{'house_number': '5001-5003', 'road': 'West Polk Street', 'neighbourhood': 'Austin', 'city': 'Chicago', 'county': 'Cook County', 'state': 'Illinois', 'postcode': '60644', 'country': 'United States of America', 'country_code': 'us'}",60644
41.88,-87.77,"{'house_number': '5801-5805', 'road': 'West Madison Street', 'neighbourhood': 'Austin', 'city': 'Chicago', 'county': 'Cook County', 'state': 'Illinois', 'postcode': '60644', 'country': 'United States of America', 'country_code': 'us'}",60644
41.89,-87.75,"{'house_number': '4949', 'road': 'West Race Avenue', 'neighbourhood': 'Austin', 'city': 'Chicago', 'county': 'Cook County', 'state': 'Illinois', 'postcode': '60644', 'country': 'United States of America', 'country_code': 'us'}",60644
41.89,-87.76,"{'house_number': '5348', 'road': 'West Race Avenue', 'neighbourhood': 'Austin', 'city': 'Chicago', 'county': 'Cook County', 'state': 'Illinois', 'postcode': '60644', 'country': 'United States of America', 'country_code': 'us'}",60644
41.88,-87.76,"{'house_number': '5361', 'road': 'West Madison Street', 'neighbourhood': 'Austin', 'city': 'Chicago', 'county': 'Cook County', 'state': 'Illinois', 'postcode': '60644', 'country': 'United States of America', 'country_code': 'us'}",60644
41.87,-87.76,"{'house_number': '758', 'road': 'South Long Avenue', 'neighbourhood': 'Austin', 'city': 'Chicago', 'county': 'Cook County', 'state': 'Illinois', 'postcode': '60644', 'country': 'United States of America', 'country_code': 'us'}",60644
41.88,-87.75,"{'shop': 'Advance Auto Parts', 'house_number': '5001', 'road': 'West Madison Street', 'neighbourhood': 'Austin', 'city': 'Chicago', 'county': 'Cook County', 'state': 'Illinois', 'postcode': '60644', 'country': 'United States of America', 'country_code': 'us'}",60644
41.87,-87.77,"{'house_number': '5813', 'road': 'West Railroad Avenue', 'neighbourhood': 'Austin', 'city': 'Chicago', 'county': 'Cook County', 'state': 'Illinois', 'postcode': '60644', 'country': 'United States of America', 'country_code': 'us'}",60644
42,-87.7,"{'amenity': 'Anshe Motele Congregation', 'house_number': '6522', 'road': 'North California Avenue', 'neighbourhood': 'West Ridge', 'suburb': 'Rogers Park', 'city': 'Chicago', 'municipality': 'Jefferson Township', 'county': 'Cook County', 'state': 'Illinois', 'postcode': '60645', 'country': 'United States of America', 'country_code': 'us'}",60645
42,-87.69,"{'house_number': '6500', 'road': 'North Western Avenue', 'neighbourhood': 'West Ridge', 'suburb': 'Rogers Park', 'city': 'Chicago', 'county': 'Cook County', 'state': 'Illinois', 'postcode': '60645', 'country': 'United States of America', 'country_code': 'us'}",60645
42.01,-87.68,"{'house_number': '7025-7027', 'road': 'North Damen Avenue', 'neighbourhood': 'Rogers Park', 'suburb': 'Rogers Park', 'city': 'Chicago', 'county': 'Cook County', 'state': 'Illinois', 'postcode': '60645', 'country': 'United States of America', 'country_code': 'us'}",60645
42.01,-87.67,"{'amenity': 'Field Elementary School', 'road': 'West Lunt Avenue', 'neighbourhood': 'Rogers Park', 'suburb': 'Rogers Park', 'city': 'Chicago', 'county': 'Cook County', 'state': 'Illinois', 'postcode': '60645', 'country': 'United States of America', 'country_code': 'us'}",60645
41.98,-87.69,"{'house_number': '5415', 'road': 'North Artesian Avenue', 'neighbourhood': 'West Ridge', 'suburb': 'Rogers Park', 'city': 'Chicago', 'municipality': 'Jefferson Township', 'county': 'Cook County', 'state': 'Illinois', 'postcode': '60645', 'country': 'United States of America', 'country_code': 'us'}",60645
42.01,-87.7,"{'house_number': '2807', 'road': 'West Estes Avenue', 'neighbourhood': 'West Ridge', 'suburb': 'Rogers Park', 'city': 'Chicago', 'county': 'Cook County', 'state': 'Illinois', 'postcode': '60645', 'country': 'United States of America', 'country_code': 'us'}",60645
42.01,-87.71,"{'house_number': '7055', 'road': 'North Kedzie Avenue', 'neighbourhood': 'West Ridge', 'village': 'Lincolnwood', 'municipality': 'Niles Township', 'county': 'Cook County', 'state': 'Illinois', 'postcode': '60645', 'country': 'United States of America', 'country_code': 'us'}",60645
42,-87.68,"{'house_number': '6509', 'road': 'North Damen Avenue', 'neighbourhood': 'West Ridge', 'suburb': 'Rogers Park', 'city': 'Chicago', 'county': 'Cook County', 'state': 'Illinois', 'postcode': '60645', 'country': 'United States of America', 'country_code': 'us'}",60645
42.01,-87.69,"{'house_number': '7045-7053', 'road': 'North Western Avenue', 'neighbourhood': 'West Ridge', 'suburb': 'Rogers Park', 'city': 'Chicago', 'county': 'Cook County', 'state': 'Illinois', 'postcode': '60645', 'country': 'United States of America', 'country_code': 'us'}",60645
41.99,-87.69,"{'shop': ""Napleton's Northwestern Chrysler, Jeep & Dodge"", 'house_number': '5916-5950', 'road': 'North Western Avenue', 'neighbourhood': 'West Ridge', 'suburb': 'Edgewater', 'city': 'Chicago', 'municipality': 'Jefferson Township', 'county': 'Cook County', 'state': 'Illinois', 'postcode': '60645', 'country': 'United States of America', 'country_code': 'us'}",60645
41.99,-87.78,"{'house_number': '6055', 'road': 'West Peterson Avenue', 'neighbourhood': 'Norwood Park', 'city': 'Chicago', 'municipality': 'Jefferson Township', 'county': 'Cook County', 'state': 'Illinois', 'postcode': '60646', 'country': 'United States of America', 'country_code': 'us'}",60646
41.99,-87.75,"{'road': 'West Peterson Avenue', 'neighbourhood': 'Forest Glen', 'city': 'Chicago', 'municipality': 'Jefferson Township', 'county': 'Cook County', 'state': 'Illinois', 'postcode': '60646', 'country': 'United States of America', 'country_code': 'us'}",60646
42,-87.77,"{'house_number': '6529', 'road': 'North Ponchartrain Boulevard', 'neighbourhood': 'Wildwood', 'city': 'Chicago', 'municipality': 'Jefferson Township', 'county': 'Cook County', 'state': 'Illinois', 'postcode': '60646', 'country': 'United States of America', 'country_code': 'us'}",60646
41.99,-87.74,"{'house_number': '4449', 'road': 'West Peterson Avenue', 'neighbourhood': 'Forest Glen', 'municipality': 'Jefferson Township', 'county': 'Cook County', 'state': 'Illinois', 'postcode': '60646', 'country': 'United States of America', 'country_code': 'us'}",60646
42.01,-87.78,"{'house_number': '7105', 'road': 'North Mankato Avenue', 'neighbourhood': 'Wildwood', 'city': 'Chicago', 'municipality': 'Jefferson Township', 'county': 'Cook County', 'state': 'Illinois', 'postcode': '60646', 'country': 'United States of America', 'country_code': 'us'}",60646
41.98,-87.76,"{'house_number': '5434-5438', 'road': 'North Elston Avenue', 'neighbourhood': 'Jefferson Park', 'city': 'Chicago', 'municipality': 'Jefferson Township', 'county': 'Cook County', 'state': 'Illinois', 'postcode': '60646', 'country': 'United States of America', 'country_code': 'us'}",60646
41.99,-87.76,"{'leisure': 'Billy Caldwell & Forrest Glen Woods Preserve', 'road': 'West Rosemont Avenue', 'neighbourhood': 'Forest Glen', 'city': 'Chicago', 'municipality': 'Jefferson Township', 'county': 'Cook County', 'state': 'Illinois', 'postcode': '60646', 'country': 'United States of America', 'country_code': 'us'}",60646
42,-87.75,"{'road': 'North Longmeadow Avenue', 'village': 'Lincolnwood', 'municipality': 'Niles Township', 'county': 'Cook County', 'state': 'Illinois', 'postcode': '60646', 'country': 'United States of America', 'country_code': 'us'}",60646
41.99,-87.77,"{'leisure': 'Roman Pucincki Preserve', 'road': 'West Devon Avenue', 'neighbourhood': 'Forest Glen', 'city': 'Chicago', 'municipality': 'Jefferson Township', 'county': 'Cook County', 'state': 'Illinois', 'postcode': '60646', 'country': 'United States of America', 'country_code': 'us'}",60646
42,-87.78,"{'natural': 'Bunker Hill Savanna', 'road': 'North Branch Red Paved Trail', 'neighbourhood': 'Forest Glen', 'city': 'Chicago', 'municipality': 'Jefferson Township', 'county': 'Cook County', 'state': 'Illinois', 'postcode': '60646', 'country': 'United States of America', 'country_code': 'us'}",60646
41.93,-87.71,"{'house_number': '2648-2650', 'road': 'North Sawyer Avenue', 'neighbourhood': 'Logan Square', 'city': 'Chicago', 'municipality': 'Jefferson Township', 'county': 'Cook County', 'state': 'Illinois', 'postcode': '60647', 'country': 'United States of America', 'country_code': 'us'}",60647
41.92,-87.69,"{'house_number': '2516', 'road': 'West Charleston Street', 'neighbourhood': 'Logan Square', 'city': 'Chicago', 'county': 'Cook County', 'state': 'Illinois', 'postcode': '60647', 'country': 'United States of America', 'country_code': 'us'}",60647
41.92,-87.71,"{'house_number': '2127', 'road': 'North Spaulding Avenue', 'neighbourhood': 'Logan Square', 'city': 'Chicago', 'municipality': 'Jefferson Township', 'county': 'Cook County', 'state': 'Illinois', 'postcode': '60647', 'country': 'United States of America', 'country_code': 'us'}",60647
41.93,-87.68,"{'house_number': '2741', 'road': 'North Leavitt Street', 'neighbourhood': 'Lincoln Park', 'suburb': 'Roscoe Village', 'city': 'Chicago', 'county': 'Cook County', 'state': 'Illinois', 'postcode': '60647', 'country': 'United States of America', 'country_code': 'us'}",60647
41.92,-87.68,"{'house_number': '2048', 'road': 'West Charleston Street', 'neighbourhood': 'Logan Square', 'city': 'Chicago', 'county': 'Cook County', 'state': 'Illinois', 'postcode': '60647', 'country': 'United States of America', 'country_code': 'us'}",60647
41.93,-87.7,"{'amenity': 'New Community Covenant Church', 'house_number': '2649', 'road': 'North Francisco Avenue', 'neighbourhood': 'Logan Square', 'city': 'Chicago', 'county': 'Cook County', 'state': 'Illinois', 'postcode': '60647', 'country': 'United States of America', 'country_code': 'us'}",60647
41.93,-87.69,"{'house_number': '2453', 'road': 'West Schubert Avenue', 'neighbourhood': 'Logan Square', 'city': 'Chicago', 'county': 'Cook County', 'state': 'Illinois', 'postcode': '60647', 'country': 'United States of America', 'country_code': 'us'}",60647
41.92,-87.72,"{'house_number': '3714', 'road': 'West Shakespeare Avenue', 'neighbourhood': 'Logan Square', 'city': 'Chicago', 'municipality': 'Jefferson Township', 'county': 'Cook County', 'state': 'Illinois', 'postcode': '60647', 'country': 'United States of America', 'country_code': 'us'}",60647
41.89,-87.69,"{'house_number': '440', 'road': 'North Campbell Avenue', 'neighbourhood': 'West Town', 'city': 'Chicago', 'county': 'Cook County', 'state': 'Illinois', 'postcode': '60647', 'country': 'United States of America', 'country_code': 'us'}",60647
41.91,-87.72,"{'amenity': 'R & S Car Wash', 'house_number': '3706', 'road': 'West North Avenue', 'neighbourhood': 'Beat 2535', 'city': 'Chicago', 'municipality': 'Jefferson Township', 'county': 'Cook County', 'state': 'Illinois', 'postcode': '60647', 'country': 'United States of America', 'country_code': 'us'}",60647
41.92,-87.7,"{'house_number': '2107-2109', 'road': 'North Richmond Street', 'neighbourhood': 'Logan Square', 'city': 'Chicago', 'county': 'Cook County', 'state': 'Illinois', 'postcode': '60647', 'country': 'United States of America', 'country_code': 'us'}",60647
41.76,-87.59,"{'amenity': 'James Madison Elementary School', 'road': 'East 74th Street', 'neighbourhood': 'Essex', 'city': 'Chicago', 'county': 'Cook County', 'state': 'Illinois', 'postcode': '60649', 'country': 'United States of America', 'country_code': 'us'}",60649
41.76,-87.55,"{'natural': 'Rainbow Beach', 'road': 'East 76th Street', 'neighbourhood': 'South Shore', 'city': 'Chicago', 'county': 'Cook County', 'state': 'Illinois', 'postcode': '60649', 'country': 'United States of America', 'country_code': 'us'}",60649
41.76,-87.58,"{'house_number': '7419', 'road': 'South Constance Avenue', 'neighbourhood': 'Bryn Mawr West', 'city': 'Chicago', 'county': 'Cook County', 'state': 'Illinois', 'postcode': '60649', 'country': 'United States of America', 'country_code': 'us'}",60649
41.76,-87.56,"{'house_number': '2619-2621', 'road': 'East 74th Place', 'neighbourhood': 'South Shore', 'city': 'Chicago', 'county': 'Cook County', 'state': 'Illinois', 'postcode': '60649', 'country': 'United States of America', 'country_code': 'us'}",60649
41.77,-87.57,"{'house_number': '2220-2236', 'road': 'East 69th Street', 'neighbourhood': ""O'Keeffe"", 'city': 'Chicago', 'county': 'Cook County', 'state': 'Illinois', 'postcode': '60649', 'country': 'United States of America', 'country_code': 'us'}",60649
41.77,-87.59,"{'house_number': '1422', 'road': 'East 69th Street', 'neighbourhood': 'Parkside', 'city': 'Chicago', 'county': 'Cook County', 'state': 'Illinois', 'postcode': '60649', 'country': 'United States of America', 'country_code': 'us'}",60649
41.77,-87.58,"{'house_number': '6851', 'road': 'South Constance Avenue', 'neighbourhood': 'Jackson Park Highlands District', 'city': 'Chicago', 'county': 'Cook County', 'state': 'Illinois', 'postcode': '60649', 'country': 'United States of America', 'country_code': 'us'}",60649
41.77,-87.56,"{'leisure': 'South Shore Nature Sanctuary', 'road': 'East 71st Street', 'neighbourhood': 'South Shore', 'city': 'Chicago', 'county': 'Cook County', 'state': 'Illinois', 'postcode': '60649', 'country': 'United States of America', 'country_code': 'us'}",60649
41.78,-87.58,"{'tourism': 'Statue of the Republic', 'road': 'East Hayes Drive', 'neighbourhood': 'Woodlawn', 'city': 'Chicago', 'county': 'Cook County', 'state': 'Illinois', 'postcode': '60649', 'country': 'United States of America', 'country_code': 'us'}",60649
41.78,-87.57,"{'natural': '63rd Street Beach', 'road': 'South Lake Shore Drive', 'neighbourhood': 'Hyde Park', 'city': 'Chicago', 'county': 'Cook County', 'state': 'Illinois', 'postcode': '60649', 'country': 'United States of America', 'country_code': 'us'}",60649
41.89,-87.77,"{'house_number': '555-565', 'road': 'North Menard Avenue', 'neighbourhood': 'Austin', 'city': 'Chicago', 'county': 'Cook County', 'state': 'Illinois', 'postcode': '60651', 'country': 'United States of America', 'country_code': 'us'}",60651
41.9,-87.67,"{'house_number': '1700', 'road': 'West Augusta Boulevard', 'neighbourhood': 'West Town', 'city': 'Chicago', 'county': 'Cook County', 'state': 'Illinois', 'postcode': '60651', 'country': 'United States of America', 'country_code': 'us'}",60651
41.9,-87.73,"{'house_number': '1034', 'road': 'North Kedvale Avenue', 'police_beat': 'Beat 2534', 'city': 'Chicago', 'county': 'Cook County', 'state': 'Illinois', 'postcode': '60651', 'country': 'United States of America', 'country_code': 'us'}",60651
41.9,-87.71,"{'house_number': '3300-3322', 'road': 'West Grand Avenue', 'neighbourhood': 'Humboldt Park', 'city': 'Chicago', 'county': 'Cook County', 'state': 'Illinois', 'postcode': '60651', 'country': 'United States of America', 'country_code': 'us'}",60651
41.9,-87.72,"{'house_number': '1029', 'road': 'North Ridgeway Avenue', 'neighbourhood': 'Humboldt Park', 'city': 'Chicago', 'county': 'Cook County', 'state': 'Illinois', 'postcode': '60651', 'country': 'United States of America', 'country_code': 'us'}",60651
41.9,-87.75,"{'house_number': '4940', 'road': 'West Cortez Street', 'neighbourhood': 'Austin', 'city': 'Chicago', 'county': 'Cook County', 'state': 'Illinois', 'postcode': '60651', 'country': 'United States of America', 'country_code': 'us'}",60651
41.9,-87.76,"{'house_number': '1050', 'road': 'North Lorel Avenue', 'neighbourhood': 'Austin', 'city': 'Chicago', 'county': 'Cook County', 'state': 'Illinois', 'postcode': '60651', 'country': 'United States of America', 'country_code': 'us'}",60651
41.9,-87.77,"{'house_number': '1055', 'road': 'North Menard Avenue', 'police_beat': 'Beat 2531', 'city': 'Chicago', 'municipality': 'Jefferson Township', 'county': 'Cook County', 'state': 'Illinois', 'postcode': '60651', 'country': 'United States of America', 'country_code': 'us'}",60651
41.89,-87.73,"{'house_number': '4221', 'road': 'West Ferdinand Street', 'neighbourhood': 'Humboldt Park', 'city': 'Chicago', 'county': 'Cook County', 'state': 'Illinois', 'postcode': '60651', 'country': 'United States of America', 'country_code': 'us'}",60651
41.9,-87.74,"{'house_number': '1010-1054', 'road': 'North Kolmar Avenue', 'police_beat': 'Beat 2523', 'city': 'Chicago', 'county': 'Cook County', 'state': 'Illinois', 'postcode': '60651', 'country': 'United States of America', 'country_code': 'us'}",60651
41.74,-87.7,"{'house_number': '3118', 'road': 'West 84th Place', 'neighbourhood': 'Ashburn', 'city': 'Chicago', 'county': 'Cook County', 'state': 'Illinois', 'postcode': '60652', 'country': 'United States of America', 'country_code': 'us'}",60652
41.75,-87.74,"{'house_number': '7827', 'road': 'South Keating Avenue', 'residential': 'Ford City Condos', 'city': 'Chicago', 'county': 'Cook County', 'state': 'Illinois', 'postcode': '60652', 'country': 'United States of America', 'country_code': 'us'}",60652
41.74,-87.72,"{'house_number': '3919', 'road': 'West 84th Street', 'neighbourhood': 'Ashburn', 'city': 'Chicago', 'county': 'Cook County', 'state': 'Illinois', 'postcode': '60652', 'country': 'United States of America', 'country_code': 'us'}",60652
41.75,-87.72,"{'house_number': '3844', 'road': 'West Myrick Street', 'neighbourhood': 'Ashburn', 'city': 'Chicago', 'county': 'Cook County', 'state': 'Illinois', 'postcode': '60652', 'country': 'United States of America', 'country_code': 'us'}",60652
41.76,-87.72,"{'house_number': '7501', 'road': 'South Pulaski Road', 'neighbourhood': 'Ashburn', 'city': 'Chicago', 'county': 'Cook County', 'state': 'Illinois', 'postcode': '60652', 'country': 'United States of America', 'country_code': 'us'}",60652
41.75,-87.69,"{'road': 'West 79th Street', 'neighbourhood': 'Ashburn', 'city': 'Chicago', 'county': 'Cook County', 'state': 'Illinois', 'postcode': '60652', 'country': 'United States of America', 'country_code': 'us'}",60652
41.74,-87.73,"{'house_number': '8406', 'road': 'South Kolin Avenue', 'neighbourhood': 'Ashburn', 'city': 'Chicago', 'county': 'Cook County', 'state': 'Illinois', 'postcode': '60652', 'country': 'United States of America', 'country_code': 'us'}",60652
41.75,-87.73,"{'amenity': 'Adali E. Stevenson Middle School', 'road': 'West 79th Street', 'neighbourhood': 'Ashburn', 'city': 'Chicago', 'county': 'Cook County', 'state': 'Illinois', 'postcode': '60652', 'country': 'United States of America', 'country_code': 'us'}",60652
41.75,-87.68,"{'house_number': '2252', 'road': 'West 79th Street', 'neighbourhood': 'Ashburn', 'city': 'Chicago', 'county': 'Cook County', 'state': 'Illinois', 'postcode': '60652', 'country': 'United States of America', 'country_code': 'us'}",60652
41.77,-87.71,"{'leisure': 'Marquette Park Golf Course', 'road': 'Mann Drive', 'neighbourhood': 'Chicago Lawn', 'city': 'Chicago', 'county': 'Cook County', 'state': 'Illinois', 'postcode': '60652', 'country': 'United States of America', 'country_code': 'us'}",60652
41.75,-87.71,"{'house_number': '3508-3510', 'road': 'West 79th Street', 'neighbourhood': 'Ashburn', 'city': 'Chicago', 'county': 'Cook County', 'state': 'Illinois', 'postcode': '60652', 'country': 'United States of America', 'country_code': 'us'}",60652
41.74,-87.71,"{'house_number': '3512', 'road': 'West 84th Place', 'neighbourhood': 'Ashburn', 'city': 'Chicago', 'county': 'Cook County', 'state': 'Illinois', 'postcode': '60652', 'country': 'United States of America', 'country_code': 'us'}",60652
41.74,-87.74,"{'house_number': '8401', 'road': 'South Keating Avenue', 'neighbourhood': 'Ashburn', 'city': 'Chicago', 'county': 'Cook County', 'state': 'Illinois', 'postcode': '60652', 'country': 'United States of America', 'country_code': 'us'}",60652
41.74,-87.69,"{'house_number': '2701', 'road': 'West 84th Place', 'neighbourhood': 'Ashburn', 'city': 'Chicago', 'county': 'Cook County', 'state': 'Illinois', 'postcode': '60652', 'country': 'United States of America', 'country_code': 'us'}",60652
41.76,-87.73,"{'road': 'West 73rd Street', 'neighbourhood': 'West Lawn', 'city': 'Chicago', 'county': 'Cook County', 'state': 'Illinois', 'postcode': '60652', 'country': 'United States of America', 'country_code': 'us'}",60652
41.75,-87.7,"{'house_number': '3100', 'road': 'West 79th Street', 'neighbourhood': 'Ashburn', 'city': 'Chicago', 'county': 'Cook County', 'state': 'Illinois', 'postcode': '60652', 'country': 'United States of America', 'country_code': 'us'}",60652
41.82,-87.61,"{'house_number': '649-651', 'road': 'East 41st Street', 'neighbourhood': 'Grand Boulevard', 'city': 'Chicago', 'county': 'Cook County', 'state': 'Illinois', 'postcode': '60653', 'country': 'United States of America', 'country_code': 'us'}",60653
41.83,-87.62,"{'house_number': '3535', 'road': 'South Prairie Avenue', 'neighbourhood': 'Douglas', 'city': 'Chicago', 'county': 'Cook County', 'state': 'Illinois', 'postcode': '60653', 'country': 'United States of America', 'country_code': 'us'}",60653
41.82,-87.6,"{'tourism': 'Restoration', 'road': 'East 41st Place', 'neighbourhood': 'Oakland', 'city': 'Chicago', 'county': 'Cook County', 'state': 'Illinois', 'postcode': '60653', 'country': 'United States of America', 'country_code': 'us'}",60653
41.83,-87.61,"{'amenity': 'Arts & Recreation Center at Ellis Park', 'house_number': '3520', 'road': 'South Cottage Grove Avenue', 'residential': 'Lake Grove Village', 'city': 'Chicago', 'county': 'Cook County', 'state': 'Illinois', 'postcode': '60653', 'country': 'United States of America', 'country_code': 'us'}",60653
41.89,-87.64,"{'leisure': 'East Bank Club', 'house_number': '500', 'road': 'North Kingsbury Street', 'neighbourhood': 'Chicago River North', 'city': 'Chicago', 'county': 'Cook County', 'state': 'Illinois', 'postcode': '60654', 'country': 'United States of America', 'country_code': 'us'}",60654
41.71,-87.67,"{'house_number': '1929', 'road': 'West 101st Street', 'neighbourhood': 'Beverly', 'city': 'Chicago', 'county': 'Cook County', 'state': 'Illinois', 'postcode': '60655', 'country': 'United States of America', 'country_code': 'us'}",60655
41.7,-87.71,"{'house_number': '10616', 'road': 'South Drake Avenue', 'neighbourhood': 'Mount Greenwood', 'town': 'Evergreen Park', 'municipality': 'Worth Township', 'county': 'Cook County', 'state': 'Illinois', 'postcode': '60655', 'country': 'United States of America', 'country_code': 'us'}",60655
41.7,-87.63,"{'house_number': '246', 'road': 'West 107th Street', 'neighbourhood': 'Roseland', 'city': 'Chicago', 'county': 'Cook County', 'state': 'Illinois', 'postcode': '60655', 'country': 'United States of America', 'country_code': 'us'}",60655
41.71,-87.69,"{'house_number': '10059', 'road': 'South Fairfield Avenue', 'neighbourhood': 'Beverly', 'town': 'Evergreen Park', 'municipality': 'Worth Township', 'county': 'Cook County', 'state': 'Illinois', 'postcode': '60655', 'country': 'United States of America', 'country_code': 'us'}",60655
41.7,-87.69,"{'house_number': '10628', 'road': 'South Fairfield Avenue', 'neighbourhood': 'Beverly', 'city': 'Chicago', 'county': 'Cook County', 'state': 'Illinois', 'postcode': '60655', 'country': 'United States of America', 'country_code': 'us'}",60655
41.7,-87.7,"{'house_number': '10622', 'road': 'South Troy Street', 'neighbourhood': 'Mount Greenwood', 'city': 'Chicago', 'county': 'Cook County', 'state': 'Illinois', 'postcode': '60655', 'country': 'United States of America', 'country_code': 'us'}",60655
41.69,-87.67,"{'house_number': '11156', 'road': 'South Homewood Avenue', 'neighbourhood': 'Morgan Park', 'city': 'Chicago', 'county': 'Cook County', 'state': 'Illinois', 'postcode': '60655', 'country': 'United States of America', 'country_code': 'us'}",60655
41.7,-87.72,"{'shop': 'Dollar Tree', 'house_number': '10601', 'road': 'South Pulaski Road', 'town': 'Oak Lawn', 'municipality': 'Worth Township', 'county': 'Cook County', 'state': 'Illinois', 'postcode': '60655', 'country': 'United States of America', 'country_code': 'us'}",60655
41.69,-87.71,"{'house_number': '11153', 'road': 'South Central Park Avenue', 'neighbourhood': 'Mount Greenwood', 'village': 'Merrionette Park', 'municipality': 'Worth Township', 'county': 'Cook County', 'state': 'Illinois', 'postcode': '60655', 'country': 'United States of America', 'country_code': 'us'}",60655
41.69,-87.7,"{'house_number': '11154', 'road': 'South Troy Street', 'neighbourhood': 'Mount Greenwood', 'village': 'Merrionette Park', 'municipality': 'Worth Township', 'county': 'Cook County', 'state': 'Illinois', 'postcode': '60655', 'country': 'United States of America', 'country_code': 'us'}",60655
41.71,-87.72,"{'amenity': 'Brother Rice High School', 'house_number': '10001', 'road': 'South Pulaski Road', 'town': 'Oak Lawn', 'municipality': 'Worth Township', 'county': 'Cook County', 'state': 'Illinois', 'postcode': '60655', 'country': 'United States of America', 'country_code': 'us'}",60655
41.69,-87.69,"{'house_number': '11156', 'road': 'South Fairfield Avenue', 'neighbourhood': 'Morgan Park', 'city': 'Chicago', 'county': 'Cook County', 'state': 'Illinois', 'postcode': '60655', 'country': 'United States of America', 'country_code': 'us'}",60655
41.68,-87.71,"{'house_number': '11657', 'road': 'South Central Park Avenue', 'neighbourhood': 'Mount Greenwood', 'village': 'Merrionette Park', 'municipality': 'Worth Township', 'county': 'Cook County', 'state': 'Illinois', 'postcode': '60655', 'country': 'United States of America', 'country_code': 'us'}",60655
41.98,-87.82,"{'house_number': '7714', 'road': 'West Catalpa Avenue', 'neighbourhood': 'Norwood Park', 'city': 'Chicago', 'municipality': 'Jefferson Township', 'county': 'Cook County', 'state': 'Illinois', 'postcode': '60656', 'country': 'United States of America', 'country_code': 'us'}",60656
41.98,-87.81,"{'house_number': '5458', 'road': 'North Octavia Avenue', 'neighbourhood': 'Norwood Park', 'city': 'Chicago', 'municipality': 'Jefferson Township', 'county': 'Cook County', 'state': 'Illinois', 'postcode': '60656', 'country': 'United States of America', 'country_code': 'us'}",60656
41.98,-87.8,"{'house_number': '5442', 'road': 'North Newland Avenue', 'neighbourhood': 'Norwood Park', 'city': 'Chicago', 'municipality': 'Jefferson Township', 'county': 'Cook County', 'state': 'Illinois', 'postcode': '60656', 'country': 'United States of America', 'country_code': 'us'}",60656
41.98,-87.79,"{'house_number': '5425', 'road': 'North Neenah Avenue', 'neighbourhood': 'Norwood Park', 'city': 'Chicago', 'municipality': 'Jefferson Township', 'county': 'Cook County', 'state': 'Illinois', 'postcode': '60656', 'country': 'United States of America', 'country_code': 'us'}",60656
41.98,-87.84,"{'house_number': '8521', 'road': 'West Gregory Street', 'commercial': 'Oakview Corporate Park', 'city': 'Chicago', 'municipality': 'Jefferson Township', 'county': 'Cook County', 'state': 'Illinois', 'postcode': '60656', 'country': 'United States of America', 'country_code': 'us'}",60656
41.97,-87.8,"{'house_number': '4859', 'road': 'North Newland Avenue', 'neighbourhood': 'Norwood Park', 'village': 'Harwood Heights', 'municipality': 'Jefferson Township', 'county': 'Cook County', 'state': 'Illinois', 'postcode': '60656', 'country': 'United States of America', 'country_code': 'us'}",60656
41.96,-87.84,"{'house_number': '8508', 'road': 'West Brodman Avenue', 'neighbourhood': ""O'Hare"", 'city': 'Chicago', 'municipality': 'Jefferson Township', 'county': 'Cook County', 'state': 'Illinois', 'postcode': '60656', 'country': 'United States of America', 'country_code': 'us'}",60656
41.97,-87.84,"{'house_number': '8536-8538', 'road': 'West Argyle Street', 'neighbourhood': ""O'Hare"", 'town': 'Norridge', 'municipality': 'Norwood Park Township', 'county': 'Cook County', 'state': 'Illinois', 'postcode': '60656', 'country': 'United States of America', 'country_code': 'us'}",60656
41.98,-87.83,"{'house_number': '5525', 'road': 'West Gregory Street', 'neighbourhood': 'Norwood Park', 'city': 'Chicago', 'municipality': 'Norwood Park Township', 'county': 'Cook County', 'state': 'Illinois', 'postcode': '60656', 'country': 'United States of America', 'country_code': 'us'}",60656
41.94,-87.65,"{'house_number': '812', 'road': 'West Belmont Avenue', 'neighbourhood': 'Lake View', 'suburb': 'Lakeview', 'city': 'Chicago', 'county': 'Cook County', 'state': 'Illinois', 'postcode': '60657', 'country': 'United States of America', 'country_code': 'us'}",60657
41.94,-87.67,"{'house_number': '1632-1636', 'road': 'West Belmont Avenue', 'neighbourhood': 'North Center', 'suburb': 'Roscoe Village', 'city': 'Chicago', 'county': 'Cook County', 'state': 'Illinois', 'postcode': '60657', 'country': 'United States of America', 'country_code': 'us'}",60657
41.94,-87.66,"{'building': 'Camaci Building', 'house_number': '1220-1222', 'road': 'West Belmont Avenue', 'neighbourhood': 'Lake View', 'suburb': 'Lakeview', 'city': 'Chicago', 'county': 'Cook County', 'state': 'Illinois', 'postcode': '60657', 'country': 'United States of America', 'country_code': 'us'}",60657
41.94,-87.64,"{'house_number': '3158-3172', 'road': 'North Sheridan Road', 'neighbourhood': 'Lake View', 'suburb': 'Lakeview', 'city': 'Chicago', 'county': 'Cook County', 'state': 'Illinois', 'postcode': '60657', 'country': 'United States of America', 'country_code': 'us'}",60657
41.95,-87.64,"{'road': 'Addison Drive', 'neighbourhood': 'Lake View', 'suburb': 'Lakeview', 'city': 'Chicago', 'county': 'Cook County', 'state': 'Illinois', 'postcode': '60657', 'country': 'United States of America', 'country_code': 'us'}",60657
41.99,-87.7,"{'house_number': '2815', 'road': 'West Peterson Avenue', 'neighbourhood': 'West Ridge', 'city': 'Chicago', 'municipality': 'Jefferson Township', 'county': 'Cook County', 'state': 'Illinois', 'postcode': '60659', 'country': 'United States of America', 'country_code': 'us'}",60659
41.99,-87.71,"{'house_number': '3200', 'road': 'West Peterson Avenue', 'neighbourhood': 'North Park', 'city': 'Chicago', 'municipality': 'Jefferson Township', 'county': 'Cook County', 'state': 'Illinois', 'postcode': '60659', 'country': 'United States of America', 'country_code': 'us'}",60659
41.95,-87.71,"{'house_number': '3755', 'road': 'North Spaulding Avenue', 'neighbourhood': 'Irving Park', 'city': 'Chicago', 'municipality': 'Jefferson Township', 'county': 'Cook County', 'state': 'Illinois', 'postcode': '60659', 'country': 'United States of America', 'country_code': 'us'}",60659
41.99,-87.68,"{'house_number': '2101', 'road': 'West Peterson Avenue', 'neighbourhood': 'Lincoln Square', 'suburb': 'Edgewater', 'city': 'Chicago', 'county': 'Cook County', 'state': 'Illinois', 'postcode': '60659', 'country': 'United States of America', 'country_code': 'us'}",60659
41.97,-87.7,"{'house_number': '4833', 'road': 'North Francisco Avenue', 'neighbourhood': 'Lincoln Square', 'city': 'Chicago', 'municipality': 'Jefferson Township', 'county': 'Cook County', 'state': 'Illinois', 'postcode': '60659', 'country': 'United States of America', 'country_code': 'us'}",60659
41.99,-87.72,"{'building': 'Gate House', 'road': 'West Peterson Avenue', 'neighbourhood': 'North Park', 'city': 'Chicago', 'municipality': 'Jefferson Township', 'county': 'Cook County', 'state': 'Illinois', 'postcode': '60659', 'country': 'United States of America', 'country_code': 'us'}",60659
41.98,-87.73,"{'house_number': '5400', 'road': 'North Pulaski Road', 'neighbourhood': 'North Park', 'city': 'Chicago', 'municipality': 'Jefferson Township', 'county': 'Cook County', 'state': 'Illinois', 'postcode': '60659', 'country': 'United States of America', 'country_code': 'us'}",60659
41.99,-87.66,"{'house_number': '1132', 'road': 'West Thorndale Avenue', 'neighbourhood': 'Edgewater', 'city': 'Chicago', 'county': 'Cook County', 'state': 'Illinois', 'postcode': '60660', 'country': 'United States of America', 'country_code': 'us'}",60660
41.99,-87.67,"{'house_number': '5957-5959', 'road': 'North Clark Street', 'neighbourhood': 'Edgewater', 'suburb': 'Edgewater', 'city': 'Chicago', 'county': 'Cook County', 'state': 'Illinois', 'postcode': '60660', 'country': 'United States of America', 'country_code': 'us'}",60660
42,-87.66,"{'amenity': 'Loyola University Chicago', 'house_number': '1032', 'road': 'West Sheridan Road', 'neighbourhood': 'Edgewater', 'city': 'Chicago', 'county': 'Cook County', 'state': 'Illinois', 'postcode': '60660', 'country': 'United States of America', 'country_code': 'us'}",60660
41.98,-87.65,"{'natural': 'Foster Beach', 'road': 'Lakefront Trail', 'neighbourhood': 'Edgewater', 'city': 'Chicago', 'county': 'Cook County', 'state': 'Illinois', 'postcode': '60660', 'country': 'United States of America', 'country_code': 'us'}",60660
41.88,-87.64,"{'building': 'Cigna', 'house_number': '525', 'road': 'West Monroe Street', 'neighbourhood': 'Near West Side', 'city': 'Chicago', 'county': 'Cook County', 'state': 'Illinois', 'postcode': '60661', 'country': 'United States of America', 'country_code': 'us'}",60661
41.99,-87.88,"{'amenity': ""O'Hare Multi Modal Facility"", 'house_number': '10255', 'road': 'Mannheim Road', 'neighbourhood': ""O'Hare"", 'city': 'Chicago', 'municipality': 'Jefferson Township', 'county': 'Cook County', 'state': 'Illinois', 'postcode': '60666', 'country': 'United States of America', 'country_code': 'us'}",60666
41.97,-87.79,"{'amenity': 'Beard Elementary School', 'road': 'North Neenah Avenue', 'neighbourhood': 'Norwood Park', 'village': 'Harwood Heights', 'municipality': 'Jefferson Township', 'county': 'Cook County', 'state': 'Illinois', 'postcode': '60706', 'country': 'United States of America', 'country_code': 'us'}",60706
41.97,-87.81,"{'road': 'Octavia Avenue', 'neighbourhood': 'Norwood Park', 'village': 'Harwood Heights', 'municipality': 'Norwood Park Township', 'county': 'Cook County', 'state': 'Illinois', 'postcode': '60706', 'country': 'United States of America', 'country_code': 'us'}",60706
41.96,-87.8,"{'road': 'New England Avenue', 'village': 'Harwood Heights', 'municipality': 'Norwood Park Township', 'county': 'Cook County', 'state': 'Illinois', 'postcode': '60706', 'country': 'United States of America', 'country_code': 'us'}",60706
41.96,-87.83,"{'house_number': '4408', 'road': 'Redwood Drive', 'town': 'Norridge', 'municipality': 'Norwood Park Township', 'county': 'Cook County', 'state': 'Illinois', 'postcode': '60706', 'country': 'United States of America', 'country_code': 'us'}",60706
41.97,-87.83,"{'house_number': '8100', 'road': 'Strong Street', 'town': 'Norridge', 'municipality': 'Norwood Park Township', 'county': 'Cook County', 'state': 'Illinois', 'postcode': '60706', 'country': 'United States of America', 'country_code': 'us'}",60706
41.97,-87.82,"{'road': 'Strong Street', 'town': 'Norridge', 'municipality': 'Norwood Park Township', 'county': 'Cook County', 'state': 'Illinois', 'postcode': '60706', 'country': 'United States of America', 'country_code': 'us'}",60706
41.92,-87.81,"{'house_number': '2206', 'road': 'North 73rd Court', 'neighbourhood': 'Ellsworth', 'town': 'Elmwood Park', 'municipality': 'Leyden Township', 'county': 'Cook County', 'state': 'Illinois', 'postcode': '60707', 'country': 'United States of America', 'country_code': 'us'}",60707
41.92,-87.79,"{'house_number': '2148-2202', 'road': 'North Natchez Avenue', 'police_beat': 'Beat 2512', 'city': 'Chicago', 'municipality': 'Jefferson Township', 'county': 'Cook County', 'state': 'Illinois', 'postcode': '60707', 'country': 'United States of America', 'country_code': 'us'}",60707
41.92,-87.8,"{'house_number': '6954', 'road': 'West Palmer Street', 'police_beat': 'Beat 2512', 'city': 'Chicago', 'municipality': 'Jefferson Township', 'county': 'Cook County', 'state': 'Illinois', 'postcode': '60707', 'country': 'United States of America', 'country_code': 'us'}",60707
41.93,-87.8,"{'house_number': '2727', 'road': 'North Sayre Avenue', 'neighbourhood': 'Montclare', 'city': 'Chicago', 'municipality': 'Jefferson Township', 'county': 'Cook County', 'state': 'Illinois', 'postcode': '60707', 'country': 'United States of America', 'country_code': 'us'}",60707
41.91,-87.79,"{'house_number': '1626', 'road': 'North Nashville Avenue', 'police_beat': 'Beat 2513', 'city': 'Chicago', 'municipality': 'Jefferson Township', 'county': 'Cook County', 'state': 'Illinois', 'postcode': '60707', 'country': 'United States of America', 'country_code': 'us'}",60707
41.91,-87.8,"{'house_number': '1633', 'road': 'North Sayre Avenue', 'neighbourhood': 'Montclare', 'city': 'Chicago', 'municipality': 'Jefferson Township', 'county': 'Cook County', 'state': 'Illinois', 'postcode': '60707', 'country': 'United States of America', 'country_code': 'us'}",60707
41.93,-87.79,"{'shop': 'Target', 'house_number': '6525', 'road': 'West Diversey Avenue', 'police_beat': 'Beat 2512', 'city': 'Chicago', 'municipality': 'Jefferson Township', 'county': 'Cook County', 'state': 'Illinois', 'postcode': '60707', 'country': 'United States of America', 'country_code': 'us'}",60707
41.93,-87.81,"{'house_number': '2747', 'road': 'North 73rd Court', 'neighbourhood': 'Dunning', 'town': 'Elmwood Park', 'municipality': 'Jefferson Township', 'county': 'Cook County', 'state': 'Illinois', 'postcode': '60707', 'country': 'United States of America', 'country_code': 'us'}",60707
41.91,-87.81,"{'building': 'Headquarters', 'house_number': '1622', 'road': 'North 73rd Court', 'neighbourhood': 'Ellsworth', 'town': 'Elmwood Park', 'municipality': 'Leyden Township', 'county': 'Cook County', 'state': 'Illinois', 'postcode': '60707', 'country': 'United States of America', 'country_code': 'us'}",60707
42,-87.72,"{'road': 'North Monticello Avenue', 'village': 'Lincolnwood', 'municipality': 'Niles Township', 'county': 'Cook County', 'state': 'Illinois', 'postcode': '60712', 'country': 'United States of America', 'country_code': 'us'}",60712
42,-87.73,"{'leisure': 'Bryn Mawr Country Club', 'house_number': '6600', 'road': 'Crawford Avenue', 'neighbourhood': 'Forest Glen', 'village': 'Lincolnwood', 'municipality': 'Niles Township', 'county': 'Cook County', 'state': 'Illinois', 'postcode': '60712', 'country': 'United States of America', 'country_code': 'us'}",60712
42,-87.74,"{'road': 'Valley Line Trail', 'village': 'Lincolnwood', 'municipality': 'Niles Township', 'county': 'Cook County', 'state': 'Illinois', 'postcode': '60712', 'country': 'United States of America', 'country_code': 'us'}",60712
41.99,-87.73,"{'house_number': '4025-4055', 'road': 'West Peterson Avenue', 'neighbourhood': 'North Park', 'city': 'Chicago', 'municipality': 'Jefferson Township', 'county': 'Cook County', 'state': 'Illinois', 'postcode': '60712', 'country': 'United States of America', 'country_code': 'us'}",60712
42,-87.76,"{'amenity': 'Edgebrook Elementary School', 'road': 'North Minnehaha Avenue', 'neighbourhood': 'Forest Glen', 'village': 'Lincolnwood', 'municipality': 'Niles Township', 'county': 'Cook County', 'state': 'Illinois', 'postcode': '60712', 'country': 'United States of America', 'country_code': 'us'}",60712
41.98,-87.74,"{'natural': 'Sauganash Prairie Grove', 'road': 'Weber Spur Trail', 'neighbourhood': 'North Park', 'city': 'Chicago', 'municipality': 'Jefferson Township', 'county': 'Cook County', 'state': 'Illinois', 'postcode': '60712', 'country': 'United States of America', 'country_code': 'us'}",60712
42.02,-87.81,"{'road': 'North Odell Avenue', 'neighbourhood': 'Edison Park', 'town': 'Niles', 'municipality': 'Jefferson Township', 'county': 'Cook County', 'state': 'Illinois', 'postcode': '60714', 'country': 'United States of America', 'country_code': 'us'}",60714
42,-87.79,"{'leisure': 'Clayton F. Smith Preserves', 'road': 'North Oak Park Avenue', 'town': 'Niles', 'municipality': 'Niles Township', 'county': 'Cook County', 'state': 'Illinois', 'postcode': '60714', 'country': 'United States of America', 'country_code': 'us'}",60714
42.01,-87.77,"{'house_number': '5651', 'road': 'West Touhy Avenue', 'town': 'Niles', 'municipality': 'Niles Township', 'county': 'Cook County', 'state': 'Illinois', 'postcode': '60714', 'country': 'United States of America', 'country_code': 'us'}",60714
42.01,-87.79,"{'leisure': 'Clayton F. Smith Preserves', 'road': 'North Oak Park Avenue', 'town': 'Niles', 'municipality': 'Niles Township', 'county': 'Cook County', 'state': 'Illinois', 'postcode': '60714', 'country': 'United States of America', 'country_code': 'us'}",60714
41.69,-87.72,"{'amenity': 'Chicago High School for the Agricultural Sciences', 'road': 'South Pulaski Road', 'neighbourhood': 'Mount Greenwood', 'city': 'Chicago', 'county': 'Cook County', 'state': 'Illinois', 'postcode': '60803', 'country': 'United States of America', 'country_code': 'us'}",60803
41.68,-87.73,"{'amenity': 'Stony Creek Elementary School', 'road': 'West 116th Place', 'hamlet': 'Hazel Green', 'town': 'Alsip', 'municipality': 'Worth Township', 'county': 'Cook County', 'state': 'Illinois', 'postcode': '60803', 'country': 'United States of America', 'country_code': 'us'}",60803
41.68,-87.72,"{'amenity': 'Citgo', 'road': 'South Pulaski Road', 'town': 'Alsip', 'municipality': 'Worth Township', 'county': 'Cook County', 'state': 'Illinois', 'postcode': '60803', 'country': 'United States of America', 'country_code': 'us'}",60803
41.68,-87.7,"{'amenity': 'Merrionette Park Police Department', 'house_number': '11750', 'road': 'South Kedzie Avenue', 'village': 'Merrionette Park', 'municipality': 'Worth Township', 'county': 'Cook County', 'state': 'Illinois', 'postcode': '60803', 'country': 'United States of America', 'country_code': 'us'}",60803
41.82,-87.74,"{'road': 'Adlai Stevenson Expy', 'neighbourhood': 'Garfield Ridge', 'city': 'Chicago', 'county': 'Cook County', 'state': 'Illinois', 'postcode': '60804', 'country': 'United States of America', 'country_code': 'us'}",60804
41.84,-87.74,"{'shop': 'The Home Depot', 'house_number': '2803', 'road': 'South Cicero Avenue', 'town': 'Cicero', 'county': 'Cook County', 'state': 'Illinois', 'postcode': '60804', 'country': 'United States of America', 'country_code': 'us'}",60804
41.85,-87.74,"{'shop': 'Dollar Tree', 'house_number': '4621', 'road': 'West Cermak Road', 'town': 'Cicero', 'county': 'Cook County', 'state': 'Illinois', 'postcode': '60804', 'country': 'United States of America', 'country_code': 'us'}",60804
41.71,-87.71,"{'road': 'Clifton Park Avenue', 'town': 'Evergreen Park', 'municipality': 'Worth Township', 'county': 'Cook County', 'state': 'Illinois', 'postcode': '60805', 'country': 'United States of America', 'country_code': 'us'}",60805
41.71,-87.7,"{'road': '100th Place', 'town': 'Evergreen Park', 'municipality': 'Worth Township', 'county': 'Cook County', 'state': 'Illinois', 'postcode': '60805', 'country': 'United States of America', 'country_code': 'us'}",60805
41.65,-87.61,"{'house_number': '455', 'road': 'East 134th Place', 'neighbourhood': 'Riverdale', 'city': 'Chicago', 'county': 'Cook County', 'state': 'Illinois', 'postcode': '60827', 'country': 'United States of America', 'country_code': 'us'}",60827
41.65,-87.6,"{'road': 'South Maryland Avenue', 'neighbourhood': 'Riverdale', 'city': 'Chicago', 'county': 'Cook County', 'state': 'Illinois', 'postcode': '60827', 'country': 'United States of America', 'country_code': 'us'}",60827
41.65,-87.62,"{'road': 'East 135th Place', 'town': 'Riverdale', 'municipality': 'Calumet Township', 'county': 'Cook County', 'state': 'Illinois', 'postcode': '60827', 'country': 'United States of America', 'country_code': 'us'}",60827
41.66,-87.65,"{'road': 'May Street', 'village': 'Calumet Park', 'municipality': 'Calumet Township', 'county': 'Cook County', 'state': 'Illinois', 'postcode': '60827', 'country': 'United States of America', 'country_code': 'us'}",60827
41.67,-87.65,"{'road': 'May Street', 'village': 'Calumet Park', 'municipality': 'Calumet Township', 'county': 'Cook County', 'state': 'Illinois', 'postcode': '60827', 'country': 'United States of America', 'country_code': 'us'}",60827
41.67,-87.66,"{'village': 'Calumet Park', 'municipality': 'Calumet Township', 'county': 'Cook County', 'state': 'Illinois', 'postcode': '60827-6427', 'country': 'United States of America', 'country_code': 'us'}",60827
41.68,-87.65,"{'house_number': '1144', 'road': 'West 119th Street', 'neighbourhood': 'Placerdale', 'city': 'Chicago', 'county': 'Cook County', 'state': 'Illinois', 'postcode': '60827-6427', 'country': 'United States of America', 'country_code': 'us'}",60827
41.98,-87.68,"{'house_number': '5410', 'road': 'North Damen Avenue', 'neighbourhood': 'Lincoln Square', 'suburb': 'Edgewater', 'city': 'Chicago', 'county': 'Cook County', 'state': 'Illinois', 'postcode': '9020', 'country': 'United States of America', 'country_code': 'us'}",9020
41.81,-87.61,"{'house_number': '642-644', 'road': 'East 47th Street', 'neighbourhood': 'Grand Boulevard', 'city': 'Chicago', 'county': 'Cook County', 'state': 'Illinois', 'postcode': '90615', 'country': 'United States of America', 'country_code': 'us'}",90615
41.8,-87.61,"{'leisure': 'Harold Washington Common Ground', 'road': 'Payne Drive', 'neighbourhood': 'Washington Park', 'city': 'Chicago', 'county': 'Cook County', 'state': 'Illinois', 'postcode': '90615', 'country': 'United States of America', 'country_code': 'us'}",90615
41.81,-87.6,"{'house_number': '1034-1036', 'road': 'East 47th Street', 'neighbourhood': 'Kenwood', 'city': 'Chicago', 'county': 'Cook County', 'state': 'Illinois', 'postcode': '90615', 'country': 'United States of America', 'country_code': 'us'}",90615
41.97,-87.88,"{'road': 'Express Center Drive', 'neighbourhood': ""O'Hare"", 'city': 'Chicago', 'municipality': 'Jefferson Township', 'county': 'Cook County', 'state': 'Illinois', 'postcode': '60688-9998', 'country': 'United States of America', 'country_code': 'us'}",60688
41.98,-87.88,"{'road': 'Kennedy Expressway', 'neighbourhood': ""O'Hare"", 'city': 'Chicago', 'municipality': 'Jefferson Township', 'county': 'Cook County', 'state': 'Illinois', 'postcode': '60688-9998', 'country': 'United States of America', 'country_code': 'us'}",60688
41.88,-87.62,"{'neighbourhood': 'Loop', 'city': 'Chicago', 'county': 'Cook County', 'state': 'Illinois', 'country': 'United States of America', 'country_code': 'us'}",NaN
41.89,-87.62,"{'neighbourhood': 'Loop', 'city': 'Chicago', 'county': 'Cook County', 'state': 'Illinois', 'country': 'United States of America', 'country_code': 'us'}",NaN
41.87,-87.62,"{'neighbourhood': 'Loop', 'suburb': 'South Loop', 'city': 'Chicago', 'county': 'Cook County', 'state': 'Illinois', 'country': 'United States of America', 'country_code': 'us'}",NaN
41.8,-87.58,"{'neighbourhood': 'Hyde Park', 'city': 'Chicago', 'county': 'Cook County', 'state': 'Illinois', 'country': 'United States of America', 'country_code': 'us'}",NaN
41.83,-87.6,"{'neighbourhood': 'Oakland', 'city': 'Chicago', 'county': 'Cook County', 'state': 'Illinois', 'country': 'United States of America', 'country_code': 'us'}",NaN
41.86,-87.61,"{'neighbourhood': 'Near South Side', 'suburb': 'South Loop', 'city': 'Chicago', 'county': 'Cook County', 'state': 'Illinois', 'country': 'United States of America', 'country_code': 'us'}",NaN
41.74,-87.68,"{'road': 'Dan Ryan Black Paved Loop Trail', 'neighbourhood': 'Ashburn', 'city': 'Chicago', 'county': 'Cook County', 'state': 'Illinois', 'country': 'United States of America', 'country_code': 'us'}",NaN
